TDRS 3                  
1 19548U 88091B   26276.23012117 -.00000304  00000+0  00000+0 0  9999
2 19548  12.5226 340.2797 0039157 350.5452  75.0524  1.00266750126478
FLTSATCOM 8 (USA 46)    
1 20253U 89077A   26280.62241840 -.00000380  00000+0  00000+0 0  9998
2 20253  12.3927 350.4733 0003574 240.7644 134.4572  1.00261420261695
TDRS 5                  
1 21639U 91054B   26280.37842927  .00000073  00000+0  00000+0 0  9998
2 21639  14.0585 352.9380 0009772 254.0303  97.6394  1.00271393128834
TDRS 6                  
1 22314U 93003B   26277.05460726 -.00000303  00000+0  00000+0 0  9996
2 22314  14.1861 356.2374 0009852 206.6061 143.7034  1.00268030123491
UFO 2 (USA 95)          
1 22787U 93056A   26279.89054775  .00000113  00000+0  00000+0 0  9993
2 22787  11.9367   2.9239 0003467 249.5804 112.3046  1.00271047119675
UFO 4 (USA 108)         
1 23467U 95003A   26280.48921127 -.00000033  00000+0  00000+0 0  9996
2 23467   9.7175  12.7039 0003046 185.6886 166.1613  1.00273095116076
TDRS 7                  
1 23613U 95035B   26279.77137350 -.00000250  00000+0  00000+0 0  9992
2 23613  13.2921 347.4123 0010058  98.4820 296.3250  1.00267580114376
USA 115 (MILSTAR-1 2)   
1 23712U 95060A   26280.21578203 -.00000213  00000+0  00000+0 0  9996
2 23712  14.1133   2.9019 0005481 171.2014 189.4857  1.00270903 34017
INMARSAT 3-F1           
1 23839U 96020A   26280.62761843 -.00000258  00000+0  00000+0 0  9991
2 23839  10.8324  45.5647 0007703 168.6954 178.9534  1.00002823111378
INMARSAT 3-F2           
1 24307U 96053A   26279.96291472  .00000121  00000+0  00000+0 0  9997
2 24307  10.1058  52.7712 0005681 143.2401 200.0543  0.99987471110035
INMARSAT 3-F3           
1 24674U 96070A   26279.79984803 -.00000260  00000+0  00000+0 0  9996
2 24674  10.5557  48.5490 0006849 170.2885  15.2651  0.99984361109027
USA 134                 
1 25019U 97065A   26280.40172691 -.00000072  00000+0  00000+0 0  9990
2 25019  12.9178  20.8618 0003915 266.7952 120.5915  1.00270950 34089
INMARSAT 3-F5           
1 25153U 98006B   26280.41675266 -.00000300  00000+0  00000+0 0  9996
2 25153   9.9403  52.1096 0004662 147.4542 272.5756  1.00273470105027
ABS-6                   
1 25924U 99053A   26280.62917844 -.00000135  00000+0  00000+0 0  9995
2 25924   0.0480  86.3948 0001593 143.4399 171.9763  1.00271405 98961
UFO 10 (USA 146)        
1 25967U 99063A   26279.09638706 -.00000199  00000+0  00000+0 0  9999
2 25967   9.9491  26.6084 0004869 205.7597 154.2943  1.00272784 98456
ASIASTAR                
1 26107U 00016A   26280.75879973 -.00000342  00000+0  00000+0 0  9994
2 26107   9.3892  56.9204 0004153 149.3752 188.2900  1.00270116 97045
USA 149 (DSP 20)        
1 26356U 00024A   26279.93813234 -.00000018  00000+0  00000+0 0  9995
2 26356  13.2840  11.1314 0002713 289.9345  87.7610  0.99007437 34045
TDRS 8                  
1 26388U 00034A   26280.73688999 -.00000204  00000+0  00000+0 0  9996
2 26388  12.8595  30.3466 0001513 163.4165 172.6733  1.00276309 96302
NSS-11                  
1 26554U 00059A   26280.63247178  .00000011  00000+0  00000+0 0  9992
2 26554   2.4111  79.9135 0002960 120.3389 219.7344  1.00272490 42416
USA 153                 
1 26575U 00065A   26280.53566034 -.00000333  00000+0  00000+0 0  9994
2 26575  11.8176  34.4655 0001204 125.6915 183.2506  1.00276308 34058
AMC-6                   
1 26580U 00067A   26280.64217848  .00000073  00000+0  00000+0 0  9990
2 26580   0.4350  83.2850 0004869 130.2555 258.8928  1.00272065 95020
USA 157 (MILSTAR-2 2)   
1 26715U 01009A   26280.47310987  .00000099  00000+0  00000+0 0  9994
2 26715  11.6674  19.0448 0042882 181.8073 195.5630  1.00275162 34073
INTELSAT 902 (IS-902)   
1 26900U 01039A   26280.72964944 -.00000293  00000+0  00000+0 0  9996
2 26900   6.3949  70.3580 0004026 128.3241  30.3110  1.00272216 91825
USA 164 (MILSTAR-2 3)   
1 27168U 02001A   26279.95996804  .00000087  00000+0  00000+0 0  9996
2 27168  11.3148  21.2064 0097991  10.0788 348.9734  1.00277594 34075
INTELSAT 904 (IS-904)   
1 27380U 02007A   26280.76781376 -.00000235  00000+0  00000+0 0  9991
2 27380   7.1965  67.7877 0003483 140.5204  53.0360  1.00270747 52895
DIRECTV 5 (TEMPO 1)     
1 27426U 02023A   26280.50455133 -.00000069  00000+0  00000+0 0  9996
2 27426   5.1593  73.8523 0003285 133.4552 240.4043  1.00271711 89256
INTELSAT 905 (IS-905)   
1 27438U 02027A   26280.50833081  .00000083  00000+0  00000+0 0  9990
2 27438   7.0306  68.3988 0003819 161.5782 191.9979  1.00273021 52485
GALAXY 3C (G-3C)        
1 27445U 02030A   26280.50758468 -.00000165  00000+0  00000+0 0  9999
2 27445   4.0279  76.5753 0001202  53.4445 334.0464  1.00271541 47623
INTELSAT 906 (IS-906)   
1 27513U 02041A   26280.46780455  .00000002  00000+0  00000+0 0  9992
2 27513   6.0814  71.4864 0003797 145.7166  31.4993  1.00271671 88151
NIMIQ 2                 
1 27632U 02062A   26279.93457461 -.00000079  00000+0  00000+0 0  9990
2 27632   9.7009  55.6791 0005621 138.1105  49.0791  1.00271727 45302
USA 167                 
1 27691U 03008A   26280.19236586 -.00000004  00000+0  00000+0 0  9997
2 27691  11.1812  42.3745 0003571 278.5378   2.1438  1.00272546  7891
USA 169 (MILSTAR-2 4)   
1 27711U 03012A   26280.62779176 -.00000205  00000+0  00000+0 0  9993
2 27711  12.5052  28.0521 0095790  11.8938 354.4931  1.00273639 34088
ASIASAT 4               
1 27718U 03014A   26280.53954866 -.00000234  00000+0  00000+0 0  9995
2 27718   4.9849  74.2757 0002817 127.8653 155.8574  1.00271376 46421
HELLAS-SAT 2            
1 27811U 03020A   26280.66696524 -.00000093  00000+0  00000+0 0  9997
2 27811   7.6295  66.4961 0009011 155.5933  24.3828  1.00271689 43978
THURAYA-2               
1 27825U 03026A   26279.94354418  .00000113  00000+0  00000+0 0  9992
2 27825   9.0120  31.4139 0000330 223.8959 144.0048  1.00274132 85478
OPTUS C1                
1 27831U 03028B   26280.25164002 -.00000162  00000+0  00000+0 0  9990
2 27831   7.1650  68.0059 0005493 129.8974  64.3192  1.00269870 54187
USA 170                 
1 27875U 03040A   26279.93293281  .00000116  00000+0  00000+0 0  9995
2 27875  10.7341  46.8608 0002178 185.5758 143.2555  1.00277308 34118
GALAXY 13 (HORIZONS-1)  
1 27954U 03044A   26280.63923181  .00000118  00000+0  00000+0 0  9997
2 27954   1.7030  82.2418 0002418 138.3811 235.8026  1.00273118 47702
YAMAL 202               
1 28089U 03053A   26280.63004510 -.00000090  00000+0  00000+0 0  9993
2 28089   6.6193  69.5223 0005124 136.8074 200.3526  1.00272214 83820
UFO 11 (USA 174)        
1 28117U 03057A   26279.86889105 -.00000114  00000+0  00000+0 0  9990
2 28117   9.0626  33.2259 0004062 172.9637 197.5135  1.00271355 83573
USA 176 (DSP 22)        
1 28158U 04004A   26280.49406463 -.00000084  00000+0  00000+0 0  9997
2 28158  12.2115  25.2243 0004341 284.9492  80.9331  0.99001818 34069
ABS-4 (MOBISAT-1)       
1 28184U 04007A   26280.46719787  .00000027  00000+0  00000+0 0  9998
2 28184   6.3191  70.5894 0005317 130.8928  43.8453  1.00273011 53465
INTELSAT 10-02          
1 28358U 04022A   26280.66869858 -.00000027  00000+0  00000+0 0  9996
2 28358   0.0162 231.9618 0000303  57.1333 326.9725  1.00271126 81682
ANIK F2                 
1 28378U 04027A   26280.50437800 -.00000063  00000+0  00000+0 0  9994
2 28378   3.5706  77.9594 0002963 105.9817 262.7086  1.00271884 42393
AMC-15                  
1 28446U 04041A   26280.64815851 -.00000105  00000+0  00000+0 0  9994
2 28446   0.0505  44.2216 0002071 174.6105 285.7502  1.00271131 80439
NSS-10                  
1 28526U 05003A   26280.23383580 -.00000263  00000+0  00000+0 0  9991
2 28526   6.7258  69.0503 0003377 131.5171 222.0653  1.00270254 54274
INMARSAT 4-F1           
1 28628U 05009A   26280.63290512  .00000021  00000+0  00000+0 0  9997
2 28628   5.3261  42.8215 0003026 167.2812 212.1496  1.00271371 78805
DIRECTV 8               
1 28659U 05019A   26280.64538516 -.00000015  00000+0  00000+0 0  9996
2 28659   0.0190 223.2828 0002839 337.2834 289.0409  1.00272646 78208
GALAXY 28 (G-28)        
1 28702U 05022A   26280.66358523 -.00000213  00000+0  00000+0 0  9999
2 28702   3.5817  77.4624 0001704 122.8553  27.8174  1.00271968 53105
THAICOM 4               
1 28786U 05028A   26280.70195105 -.00000378  00000+0  00000+0 0  9999
2 28786   0.5304  84.1305 0000422 177.7406 126.6990  1.00272154 53379
ANIK F1R                
1 28868U 05036A   26280.00624824 -.00000088  00000+0  00000+0 0  9995
2 28868   4.5940  75.1246 0002237  74.6449 120.8550  1.00271535 47577
SYRACUSE 3A             
1 28885U 05041B   26254.51939881  .00000114  00000+0  00000+0 0  9998
2 28885   4.8548  74.7263 0002457 106.5771  42.9291  1.00275934 76614
INMARSAT 4-F2           
1 28899U 05044A   26280.62605843 -.00000272  00000+0  00000+0 0  9991
2 28899   5.2426  43.7251 0002711 164.3171 177.1343  1.00271586 76642
METEOSAT-9 (MSG-2)      
1 28912U 05049B   26279.94433897  .00000114  00000+0  00000+0 0  9997
2 28912   9.6115  53.0343 0001500   0.4894 347.7294  1.00272256  8116
EUTELSAT 174A           
1 28924U 05052A   26280.63212512 -.00000003  00000+0  00000+0 0  9999
2 28924   4.4985  75.0697 0006070 122.3981 220.3798  1.00272224 53458
ECHOSTAR 10             
1 28935U 06003A   26280.64711851 -.00000071  00000+0  00000+0 0  9994
2 28935   0.0566  39.1737 0001383 137.7794 322.1091  1.00271906 75599
SPAINSAT                
1 28945U 06007A   26280.04018493 -.00000233  00000+0  00000+0 0  9995
2 28945   0.8465  84.4804 0005117 121.3344 154.1736  1.00270649 75337
JCSAT-5A                
1 29045U 06010A   26280.37058787 -.00000343  00000+0  00000+0 0  9999
2 29045   1.3919  82.6728 0001322  64.5553 134.2831  1.00273674 74894
ASTRA 1KR               
1 29055U 06012A   26280.67268525  .00000104  00000+0  00000+0 0  9992
2 29055   0.7586  82.4007 0003584 118.9943  76.0929  1.00271810 46828
GALAXY 16 (G-16)        
1 29236U 06023A   26280.50680468 -.00000143  00000+0  00000+0 0  9995
2 29236   0.0125 194.3690 0002707   4.0327 261.2178  1.00272142 74092
EUTELSAT 33F            
1 29270U 06032A   26280.57116506  .00000141  00000+0  00000+0 0  9994
2 29270   1.9461  80.8035 0003348 116.4269  57.7143  1.00272584 48439
JCSAT-3A                
1 29272U 06033A   26280.69762870 -.00000361  00000+0  00000+0 0  9996
2 29272   0.0217 242.9957 0002358 321.2193 191.2960  1.00271540 48865
KOREASAT 5 (MUGUNGWHA 5)
1 29349U 06034A   26280.64011612 -.00000372  00000+0  00000+0 0  9990
2 29349   2.0685  81.3863 0002256 171.2696 107.1487  1.00270058 42441
DIRECTV 9S              
1 29494U 06043A   26280.64406819 -.00000207  00000+0  00000+0 0  9995
2 29494   2.7071  79.4185 0008262 194.8543  89.7605  0.99094403 52508
OPTUS D1                
1 29495U 06043B   26280.62779176 -.00000196  00000+0  00000+0 0  9990
2 29495   3.3184  78.1678 0003635 115.2717 200.8575  1.00272402 73249
BADR-4                  
1 29526U 06051A   26280.57116506  .00000142  00000+0  00000+0 0  9990
2 29526   2.2890  79.7275 0004908 120.0473  56.6141  1.00275244 52399
WILDBLUE-1              
1 29643U 06054A   26280.27961501 -.00000237  00000+0  00000+0 0  9999
2 29643   3.0878  78.9975 0004798 110.6261 238.1361  0.99176775 54905
SKYNET 5A               
1 30794U 07007B   26280.74451839 -.00000282  00000+0  00000+0 0  9997
2 30794   5.5808  72.3114 0003662 136.2397 171.0810  1.00269488 71821
ANIK F3                 
1 31102U 07009A   26280.64538516 -.00000016  00000+0  00000+0 0  9995
2 31102   1.4826  82.2943 0002609 111.0729 296.5788  1.00271401 47693
ASTRA 1L                
1 31306U 07016A   26280.31920038 -.00000199  00000+0  00000+0 0  9999
2 31306   1.6052  80.4013 0004770 118.5149 267.4849  1.00271537 46110
GALAXY 17 (G-17)        
1 31307U 07016B   26280.50957802 -.00000220  00000+0  00000+0 0  9995
2 31307   3.2498  78.3953 0004504 150.7573 245.4885  1.00271590 70938
INTELSAT 11 (IS-11)     
1 32253U 07044B   26280.66713858 -.00000218  00000+0  00000+0 0  9992
2 32253   3.8525  77.2127 0008350 141.2171  28.9416  0.99051720 69568
WGS F1 (USA 195)        
1 32258U 07046A   26280.31423451 -.00000284  00000+0  00000+0 0  9991
2 32258   0.0482  88.0715 0000558 149.5565 208.9598  1.00271902 53458
SKYNET 5B               
1 32294U 07056B   26279.93306453  .00000128  00000+0  00000+0 0  9996
2 32294   5.5288  72.1072 0003792 128.1833 176.3147  1.00274154 69318
ASTRA 4A                
1 32299U 07057A   26280.66991192  .00000017  00000+0  00000+0 0  9991
2 32299   0.0530  58.3876 0002684 152.0823  51.8318  1.00271764 52778
HORIZONS-2              
1 32388U 07063B   26280.29796936 -.00000268  00000+0  00000+0 0  9994
2 32388   2.8852  79.1420 0002021 136.7694 193.5363  1.00273503 68932
THURAYA-3               
1 32404U 08001A   26280.46771787 -.00000003  00000+0  00000+0 0  9999
2 32404   6.1796  35.8338 0002974 200.2552  12.1155  1.00271255 68611
THOR 5                  
1 32487U 08006A   26280.24111583 -.00000026  00000+0  00000+0 0  9998
2 32487   0.0103 198.4235 0002477   9.5731 253.9608  1.00271886 68434
AMC-14                  
1 32708U 08011A   26280.54234706 -.00000350  00000+0  00000+0 0  9996
2 32708  24.1382  19.1612 0034792 359.4602 318.5143  1.00428471 69294
DIRECTV 11              
1 32729U 08013A   26280.64928519  .00000000  00000+0  00000+0 0  9995
2 32729   0.0094 115.1050 0000050  13.3626  22.3910  1.00269379 46720
ICO G1                  
1 32763U 08016A   26280.29415602 -.00000184  00000+0  00000+0 0  9995
2 32763   5.5413  35.7633 0002607 133.8441 219.4003  1.00271559 67661
VINASAT-1               
1 32767U 08018A   26280.57822538 -.00000344  00000+0  00000+0 0  9990
2 32767   0.0280  74.1498 0002019 147.2575 134.9378  1.00270152 67717
STAR ONE C2             
1 32768U 08018B   26280.29970271 -.00000292  00000+0  00000+0 0  9990
2 32768   1.5208  81.1506 0002536 130.6919 207.0253  1.00269725 67778
AMOS-3                  
1 32794U 08022A   26280.61314505 -.00000132  00000+0  00000+0 0  9995
2 32794   0.7391  84.2952 0001402  82.5362 148.1840  1.00270946 83466
GALAXY 18 (G-18)        
1 32951U 08024A   26281.20947580  .00000010  00000+0  00000+0 0  9997
2 32951   0.0190 191.6864 0002895  11.5819 126.0006  1.00272083 46981
ZHONGXING-9             
1 33051U 08028A   26281.04360944 -.00000263  00000+0  00000+0 0  9999
2 33051   1.0505  83.6107 0008500 151.2804 249.8907  1.00269141 67178
SKYNET 5C               
1 33055U 08030A   26281.09309630 -.00000151  00000+0  00000+0 0  9992
2 33055   4.0730  75.6136 0003460 119.9937 196.8782  1.00270602 67082
TURKSAT 3A              
1 33056U 08030B   26281.10488301  .00000131  00000+0  00000+0 0  9995
2 33056   0.0676  75.8044 0003787 109.1333 271.5595  1.00271486 53495
ECHOSTAR 11             
1 33207U 08035A   26281.10455499 -.00000072  00000+0  00000+0 0  9995
2 33207   1.2912  82.6318 0002381 119.5020 102.4698  1.00271914 52341
SUPERBIRD-C2            
1 33274U 08038A   26280.90965396 -.00000319  00000+0  00000+0 0  9995
2 33274   2.6460  79.7463 0005059  84.2032 316.1154  1.00270693106863
INMARSAT 4-F3           
1 33278U 08039A   26280.61158012 -.00000153  00000+0  00000+0 0  9993
2 33278   4.4016  31.8060 0003140 178.6292 288.0258  1.00271824 47673
NIMIQ 4                 
1 33373U 08044A   26281.08035625 -.00000235  00000+0  00000+0 0  9992
2 33373   0.0767  83.0850 0002166 100.1774 140.4217  1.00271836 66111
GALAXY 19 (G-19)        
1 33376U 08045A   26281.14010075 -.00000154  00000+0  00000+0 0  9995
2 33376   0.0209 236.8398 0002500 313.1422 140.2426  1.00273204 66030
ASTRA 1M                
1 33436U 08057A   26281.10037632  .00000106  00000+0  00000+0 0  9995
2 33436   0.5821  82.3745 0003534 110.3317 239.5964  1.00269514 46867
EUTELSAT HOTBIRD 13C    
1 33459U 08065A   26280.32629116 -.00000296  00000+0  00000+0 0  9997
2 33459   3.2332  77.7618 0003828 127.6391 237.7618  1.00269880 48476
EXPRESS-AM44            
1 33595U 09007A   26281.11074715 -.00000100  00000+0  00000+0 0  9996
2 33595   3.7478  76.9270 0003555 126.0260 202.6955  1.00271584 53412
NSS-9                   
1 33749U 09008A   26281.06154950  .00000058  00000+0  00000+0 0  9993
2 33749   1.5471  81.2941 0002086 106.7121  33.9339  1.00271331 64654
TELSTAR 11N             
1 34111U 09009A   26281.01786933 -.00000266  00000+0  00000+0 0  9997
2 34111   0.0482  78.4531 0002619 124.2293 142.8740  1.00270839 47372
WGS F2 (USA 204)        
1 34713U 09017A   26280.60907170  .00000000  00000+0  00000+0 0  9991
2 34713   0.0182 194.4947 0000153 330.9263 127.6152  1.00270371 46740
SES-7 (PROTOSTAR 2)     
1 34941U 09027A   26280.63307469 -.00000361  00000+0  00000+0 0  9994
2 34941   0.0438  39.8014 0002305 190.8277 121.8240  1.00270018 63755
MEASAT-3A               
1 35362U 09032A   26280.62935177 -.00000126  00000+0  00000+0 0  9999
2 35362   0.0337 349.8647 0002882 207.4161 205.6082  1.00271653  9159
EWS-G3 (GOES 14)        
1 35491U 09033A   26281.10973637  .00000021  00000+0  00000+0 0  9993
2 35491   1.9758  81.4330 0002161 116.6822 284.4261  1.00071065  7722
FM-5                    
1 35493U 09034A   26281.07957624 -.00000215  00000+0  00000+0 0  9996
2 35493   0.0187 252.7205 0000270 162.0798 264.4376  1.00270377 47771
TERRESTAR-1             
1 35496U 09035A   26280.33806009 -.00000069  00000+0  00000+0 0  9995
2 35496   5.2538  48.6309 0001682 126.0968 211.9675  1.00271339 63254
ASIASAT 5               
1 35696U 09042A   26281.04516946 -.00000322  00000+0  00000+0 0  9994
2 35696   0.0341 253.2271 0001687 298.2800 301.9588  1.00269416 62856
JCSAT-12 (JCSAT-RA)     
1 35755U 09044A   26281.02941669 -.00000343  00000+0  00000+0 0  9997
2 35755   0.0194 248.9221 0001863 345.2508 285.1508  1.00270497 62742
OPTUS D3                
1 35756U 09044B   26280.77116013 -.00000163  00000+0  00000+0 0  9996
2 35756   0.7599 267.7710 0004250 291.6933 250.7383  1.00271345 62696
NIMIQ 5                 
1 35873U 09050A   26281.06125292 -.00000272  00000+0  00000+0 0  9996
2 35873   0.0499  78.3665 0002789 119.1452 128.5555  1.00270645 62479
AMAZONAS 2              
1 35942U 09054A   26281.14609997 -.00000272  00000+0  00000+0 0  9995
2 35942   2.1014  81.4463 0003273 115.7976 160.1587  1.00269986 62311
COMSATBW-1              
1 35943U 09054B   26281.10904302  .00000010  00000+0  00000+0 0  9999
2 35943   0.0204 150.8489 0003253  58.8331 269.3350  1.00270610 62449
NSS-12                  
1 36032U 09058A   26281.10782970  .00000056  00000+0  00000+0 0  9998
2 36032   0.0753  75.7482 0002374  87.8297 309.0019  1.00272308 62059
THOR 6                  
1 36033U 09058B   26281.09638963 -.00000025  00000+0  00000+0 0  9996
2 36033   0.0222 123.2755 0001744  71.3153 216.0208  1.00271411 62132
INTELSAT 14 (IS-14)     
1 36097U 09064A   26281.08763626 -.00000288  00000+0  00000+0 0  9998
2 36097   0.2007  83.6458 0002587 127.3700 152.2666  1.00269990 61733
EUTELSAT 36B            
1 36101U 09065A   26281.10661634  .00000097  00000+0  00000+0 0  9991
2 36101   0.7710  80.9881 0005779 117.9149 266.7648  1.00274691 61840
INTELSAT 15 (IS-15)     
1 36106U 09067A   26281.11346306 -.00000200  00000+0  00000+0 0  9992
2 36106   0.0427  56.8991 0002768 162.3265 283.5393  1.00271942 42361
WGS F3 (USA 211)        
1 36108U 09068A   26281.12750043  .00000006  00000+0  00000+0 0  9996
2 36108   0.3021  84.4554 0000193 157.1208  58.8200  1.00271048 47729
DIRECTV 12              
1 36131U 09075A   26281.05281174 -.00000119  00000+0  00000+0 0  9992
2 36131   0.0350  32.9914 0000248 120.0956 139.9040  1.00272461 47683
BEIDOU-2 G1             
1 36287U 10001A   26280.83928037 -.00000291  00000+0  00000+0 0  9997
2 36287   4.5553  59.9190 0002845 242.7306 156.4758  1.00271112 61307
SDO                     
1 36395U 10005A   26277.11916721 -.00000067  00000+0  00000+0 0  9996
2 36395  34.8784  84.6864 0001797  82.1576 147.3231  1.00273214 61155
INTELSAT 16 (IS-16)     
1 36397U 10006A   26281.10349633  .00000001  00000+0  00000+0 0  9992
2 36397   0.0195 252.5574 0002396 337.3683 218.9317  1.01416443 60784
EWS-G2 (GOES 15)        
1 36411U 10008A   26281.10912970  .00000008  00000+0  00000+0 0  9998
2 36411   1.5832  81.7292 0004702  92.8223 304.8317  1.00273045 60772
ECHOSTAR 14             
1 36499U 10010A   26281.05944862 -.00000015  00000+0  00000+0 0  9995
2 36499   0.0464  72.5926 0002276  97.7774 108.8506  1.00270753 47684
SES-1                   
1 36516U 10016A   26281.07662956 -.00000130  00000+0  00000+0 0  9992
2 36516   0.0412 278.6757 0002554 283.0976 101.5428  1.00272617 60163
ASTRA 3B                
1 36581U 10021A   26281.10124300  .00000123  00000+0  00000+0 0  9991
2 36581   1.7535  81.9753 0002964  81.5885 273.1276  1.00269532 59993
COMSATBW-2              
1 36582U 10021B   26281.09916299  .00000075  00000+0  00000+0 0  9992
2 36582   0.0136 191.3979 0003203  31.2418 203.0807  1.00277082 60083
BEIDOU-2 G3             
1 36590U 10024A   26280.96980084 -.00000146  00000+0  00000+0 0  9992
2 36590   4.7799  60.9041 0003735 350.3483  34.1369  1.00270683 59901
BADR-5                  
1 36592U 10025A   26281.10262968  .00000139  00000+0  00000+0 0  9997
2 36592   0.0630 112.0741 0008408 111.2556 220.8634  1.00271569 54345
ARABSAT-5A              
1 36745U 10032B   26281.10262968  .00000139  00000+0  00000+0 0  9995
2 36745   0.3224  77.9003 0003666 115.0609 251.2600  1.00273915 59779
ECHOSTAR 15             
1 36792U 10034A   26281.05935419 -.00000016  00000+0  00000+0 0  9996
2 36792   0.0487  60.3613 0002264 105.8668 113.0645  1.00272955 59459
BEIDOU-2 IGSO-1         
1 36828U 10036A   26256.66970756 -.00000130  00000+0  00000+0 0  9997
2 36828  54.3037 162.1610 0058541 217.4777 320.7749  1.00289463 58981
NILESAT 201             
1 36830U 10037A   26281.09517631 -.00000072  00000+0  00000+0 0  9990
2 36830   0.0155 196.1442 0005503 356.7970 211.0848  1.00272447 59500
RASCOM-QAF 1R           
1 36831U 10037B   26279.74290779  .00000002  00000+0  00000+0 0  9993
2 36831   0.0346 103.8549 0005324  96.9949  84.9202  1.00273155 59425
AEHF-1 (USA 214)        
1 36868U 10039A   26279.60571387  .00000137  00000+0  00000+0 0  9996
2 36868   8.4995  66.5866 0003963 131.2612  65.4485  1.00274444 54773
XM-5                    
1 37185U 10053A   26280.37730067 -.00000040  00000+0  00000+0 0  9997
2 37185   0.0671 269.1280 0000472 212.7095 274.8373  1.00269704 58609
BSAT-3B                 
1 37207U 10056B   26281.11503035 -.00000365  00000+0  00000+0 0  9991
2 37207   0.0145 171.5933 0004538  47.5150 308.9066  1.00270081 53236
BEIDOU-2 G4             
1 37210U 10057A   26280.77185347 -.00000124  00000+0  00000+0 0  9992
2 37210   3.9221  68.1289 0009181 182.8215 203.3599  1.00272492 58429
SKYTERRA 1              
1 37218U 10061A   26281.05703714 -.00000129  00000+0  00000+0 0  9996
2 37218   5.3646  50.5716 0002651 134.3391 111.0139  1.00271242 58322
HYLAS 1                 
1 37237U 10065A   26280.53452176 -.00000319  00000+0  00000+0 0  9997
2 37237   5.9223  71.5815 0001499 110.3040 162.4909  1.00269603  8011
INTELSAT 17 (IS-17)     
1 37238U 10065B   26281.10964970 -.00000017  00000+0  00000+0 0  9997
2 37238   0.0152 229.5415 0002410 326.8930 285.8320  1.00274215 54389
BEIDOU-2 IGSO-2         
1 37256U 10068A   26280.60017985 -.00000192  00000+0  00000+0 0  9993
2 37256  47.3483 270.4227 0056738 216.6868 208.9950  1.00245457 57928
EUTELSAT KA-SAT 9A      
1 37258U 10069A   26280.67069192  .00000046  00000+0  00000+0 0  9997
2 37258   0.0786 354.3436 0005166 173.7031  98.7660  1.00271992 45136
HISPASAT 30W-5          
1 37264U 10070A   26281.09066962 -.00000231  00000+0  00000+0 0  9992
2 37264   0.0533 102.1822 0005292  83.5801 193.6301  1.00271582 54316
KOREASAT 6              
1 37265U 10070B   26280.91442065 -.00000127  00000+0  00000+0 0  9999
2 37265   0.0273  97.1535 0002656 126.0475 282.4388  1.00271878 57901
BEIDOU-2 IGSO-3         
1 37384U 11013A   26280.76154008 -.00000192  00000+0  00000+0 0  9991
2 37384  62.5728  39.1010 0035016 185.4861 173.0884  1.00286138 56785
INTELSAT 28 (IS-28)     
1 37392U 11016A   26281.09032294 -.00000238  00000+0  00000+0 0  9993
2 37392   2.0918  81.0817 0003641 123.5553 172.9111  1.00270270 54414
YAHSAT 1A               
1 37393U 11016B   26280.60803169  .00000085  00000+0  00000+0 0  9996
2 37393   0.0109 208.2947 0001975 349.0259  90.3426  1.00271660 43535
SBIRS GEO-1 (USA 230)   
1 37481U 11019A   26281.03554941  .00000088  00000+0  00000+0 0  9999
2 37481   4.7832  52.9494 0001818 148.9399 239.4135  1.00272435 56533
GSAT-8                  
1 37605U 11022A   26281.10748301  .00000072  00000+0  00000+0 0  9997
2 37605   2.4168  80.3088 0007242 164.2136 226.0240  1.00272332 54352
ST-2                    
1 37606U 11022B   26280.69836528 -.00000228  00000+0  00000+0 0  9994
2 37606   0.0102 145.0258 0002060  82.2133 128.5509  1.00272679 56408
ZHONGXING-10            
1 37677U 11026A   26281.09500296 -.00000217  00000+0  00000+0 0  9999
2 37677   1.2598  50.8487 0005844 201.7555 150.4123  0.99026124 56117
SES-3                   
1 37748U 11035A   26281.13430301 -.00000115  00000+0  00000+0 0  9999
2 37748   1.6126  81.6184 0002707 137.1075 103.4154  1.00271737 55720
KAZSAT-2                
1 37749U 11035B   26279.50739244 -.00000216  00000+0  00000+0 0  9998
2 37749   0.0396 335.5652 0001351 275.5198  33.2867  1.00272028 54512
BEIDOU-2 IGSO-4         
1 37763U 11038A   26280.62564720 -.00000072  00000+0  00000+0 0  9997
2 37763  54.6013 164.6718 0160752 230.7908 299.6449  1.00263230 55774
ASTRA 1N                
1 37775U 11041A   26281.10037632  .00000105  00000+0  00000+0 0  9991
2 37775   0.1126  49.5237 0003716 124.0755 258.4895  1.00271795 45655
BSAT-3C (JCSAT-110R)    
1 37776U 11041B   26281.11503035 -.00000365  00000+0  00000+0 0  9997
2 37776   0.0560  48.9575 0000283 254.9823 224.1931  1.00270671 51605
SES-2                   
1 37809U 11049A   26281.07940291 -.00000210  00000+0  00000+0 0  9995
2 37809   0.3427  86.4477 0002898 113.6762 118.1920  1.00270738 55093
ARABSAT-5C              
1 37810U 11049B   26281.10054965  .00000109  00000+0  00000+0 0  9991
2 37810   0.0590  15.6761 0003972 187.7655 229.5152  1.00272738 55164
EUTELSAT 7 WEST A       
1 37816U 11051A   26281.09508963 -.00000075  00000+0  00000+0 0  9993
2 37816   0.0670 357.4874 0006433 193.0899 213.0907  1.00271500 55001
QUETZSAT 1              
1 37826U 11054A   26281.14452633 -.00000257  00000+0  00000+0 0  9997
2 37826   0.0494  52.8901 0002816 153.1944 145.7474  1.00272597 51005
INTELSAT 18 (IS-18)     
1 37834U 11056A   26280.63325178  .00000037  00000+0  00000+0 0  9999
2 37834   0.0123 243.6647 0002218 328.9254 211.6596  1.00271082 54933
EUTELSAT 16A            
1 37836U 11057A   26281.09716963 -.00000041  00000+0  00000+0 0  9995
2 37836   0.1496  70.7775 0005636 123.2612 220.5816  1.00023898  8462
VIASAT-1                
1 37843U 11059A   26280.59689964  .00000000  00000+0  00000+0 0  9993
2 37843   0.0232 199.4390 0002202 356.3882 280.1854  1.00268739 48455
ASIASAT 7               
1 37933U 11069A   26281.11503034 -.00000349  00000+0  00000+0 0  9993
2 37933   0.0642  78.0224 0001434  96.2882 349.3879  1.00271384 45995
BEIDOU-2 IGSO-5         
1 37948U 11073A   26280.66785572 -.00000189  00000+0  00000+0 0  9994
2 37948  47.4806 270.1379 0116099 224.5217 217.9780  1.00272514 54263
LUCH-5A                 
1 37951U 11074B   26280.63082510 -.00000056  00000+0  00000+0 0  9991
2 37951   9.0340  72.1321 0004476 142.0192 196.3558  1.00274873 54175
NIGCOMSAT 1R            
1 38014U 11077A   26281.10496968  .00000130  00000+0  00000+0 0  9996
2 38014   0.0176 161.0657 0003204 163.6960 132.2740  1.00272866 54086
WGS F4 (USA 233)        
1 38070U 12003A   26280.55018118 -.00000231  00000+0  00000+0 0  9996
2 38070   0.0139 184.4944 0000614 236.5265 241.6607  1.00269035 45277
SES-4                   
1 38087U 12007A   26280.66453856 -.00000184  00000+0  00000+0 0  9999
2 38087   0.0161  52.1505 0002383 148.9111  32.4970  1.00269668 53354
BEIDOU-2 G5             
1 38091U 12008A   26281.10817637  .00000045  00000+0  00000+0 0  9991
2 38091   3.8506  68.8609 0007962 233.4320 172.1523  1.00275216 53501
MUOS-1                  
1 38093U 12009A   26281.07250449 -.00000138  00000+0  00000+0 0  9996
2 38093   5.7054  46.9367 0051387   2.7848 253.1276  1.00273351 53572
INTELSAT 22 (IS-22)     
1 38098U 12011A   26281.11086303 -.00000074  00000+0  00000+0 0  9994
2 38098   0.0109 134.1779 0001657  68.8066 285.7962  1.00271315  8327
APSTAR-7                
1 38107U 12013A   26281.11172970 -.00000116  00000+0  00000+0 0  9990
2 38107   0.0175 167.2034 0002820  39.5792 286.6984  1.00271889 52954
YAHSAT 1B               
1 38245U 12016A   26281.10600969  .00000112  00000+0  00000+0 0  9994
2 38245   0.1066  85.9557 0001224 151.0922 225.4833  1.00269438 46746
AEHF-2 (USA 235)        
1 38254U 12019A   26280.66566523 -.00000146  00000+0  00000+0 0  9992
2 38254   6.9061  56.5835 0002887 155.4163  27.4233  1.00270005  8114
JCSAT-13                
1 38331U 12023A   26280.51386744 -.00000372  00000+0  00000+0 0  9993
2 38331   0.0456  76.2087 0002294 123.7750 125.2022  1.00271342 52671
VINASAT-2               
1 38332U 12023B   26281.02941669 -.00000344  00000+0  00000+0 0  9993
2 38332   0.0166  15.4705 0002008 181.6556 321.9977  1.00270274 47796
NIMIQ 6                 
1 38342U 12026A   26281.10089358 -.00000189  00000+0  00000+0 0  9991
2 38342   0.0501  65.6883 0002891 133.4921 122.7992  1.00272247 51550
ZHONGXING-2A            
1 38352U 12028A   26281.04473611 -.00000306  00000+0  00000+0 0  9997
2 38352   1.7399  82.2437 0002276 179.5868 229.2230  1.00269621 52430
INTELSAT 19 (IS-19)     
1 38356U 12030A   26280.63047844  .00000000  00000+0  00000+0 0  9993
2 38356   0.0193 208.1213 0003002 357.0448 204.0675  1.00268657 51570
ECHOSTAR 17             
1 38551U 12035A   26280.05356209 -.00000093  00000+0  00000+0 0  9992
2 38551   0.0194 154.7885 0002031  38.9879  94.1339  1.00272333 52182
METEOSAT-10 (MSG-3)     
1 38552U 12035B   26281.09664963 -.00000016  00000+0  00000+0 0  9992
2 38552   4.9357  60.3799 0000831 142.9134 208.4210  1.00275106 51985
SES-5                   
1 38652U 12036A   26280.66991192  .00000000  00000+0  00000+0 0  9995
2 38652   0.0133 335.8969 0002023 221.0247  65.5443  1.00270286 45586
INTELSAT 20 (IS-20)     
1 38740U 12043A   26280.61123837 -.00000041  00000+0  00000+0 0  9995
2 38740   0.0263 128.7632 0001418  51.2781 124.7746  1.00272977 51879
HYLAS 2                 
1 38741U 12043B   26281.09656296  .00000027  00000+0  00000+0 0  9992
2 38741   2.7115  79.5517 0004901 168.8625 163.0363  1.00522613 51902
INTELSAT 21 (IS-21)     
1 38749U 12045A   26281.08512293  .00000000  00000+0  00000+0 0  9990
2 38749   0.0207 192.5295 0002009   5.9218 150.9342  1.00269353 51651
ASTRA 2F                
1 38778U 12051A   26281.10219632  .00000135  00000+0  00000+0 0  9992
2 38778   0.0507 252.5798 0004133 319.5340 229.6152  1.00271210 42266
GSAT-10                 
1 38779U 12051B   26279.47373538 -.00000182  00000+0  00000+0 0  9999
2 38779   0.0162 112.9943 0004199   8.7908 146.9309  1.00270337 51213
INTELSAT 23 (IS-23)     
1 38867U 12057A   26281.21014894 -.00000299  00000+0  00000+0 0  9994
2 38867   0.0188 260.5322 0002198 356.0065 142.9627  1.00269798 51083
BEIDOU-2 G6             
1 38953U 12059A   26281.04196278 -.00000187  00000+0  00000+0 0  9996
2 38953   4.7023  72.2291 0006493 316.2449  87.3864  1.00272575 51045
LUCH-5B                 
1 38977U 12061A   26281.11074715 -.00000146  00000+0  00000+0 0  9999
2 38977  10.7249  48.7336 0006695 176.3319 175.2389  1.00271031 50731
YAMAL 300K              
1 38978U 12061B   26281.06146285  .00000056  00000+0  00000+0 0  9995
2 38978   0.0087 181.8901 0000344 310.1328  89.7706  1.00272473 50760
STAR ONE C3             
1 38991U 12062A   26281.08174292 -.00000264  00000+0  00000+0 0  9994
2 38991   0.0458  70.0511 0002163 139.1149 122.0052  1.00273473 50894
EUTELSAT 21B            
1 38992U 12062B   26281.10089632  .00000115  00000+0  00000+0 0  9995
2 38992   0.0725 344.2290 0002896 210.4732 240.0093  1.00274817 50963
ECHOSTAR 16             
1 39008U 12065A   26280.39686199 -.00000298  00000+0  00000+0 0  9991
2 39008   0.0033 111.3045 0001934  77.6888 268.4374  1.00271140 50762
ZHONGXING-12            
1 39017U 12067A   26281.11389639 -.00000222  00000+0  00000+0 0  9990
2 39017   0.0204 129.9940 0002830  69.4302 305.8502  1.00271714 50640
EUTELSAT 70B            
1 39020U 12069A   26281.11051638 -.00000059  00000+0  00000+0 0  9999
2 39020   0.0663   6.4749 0003809 189.9014 290.6789  1.00271729 50648
YAMAL 402               
1 39022U 12070A   26281.10748302  .00000072  00000+0  00000+0 0  9997
2 39022   1.5496  82.5352 0003546 115.8037 272.0183  1.00272394 50535
SKYNET 5D               
1 39034U 12075A   26281.10704969  .00000084  00000+0  00000+0 0  9999
2 39034   0.0750 354.9377 0004066 210.6834 262.4285  1.00271576 50295
MEXSAT 3                
1 39035U 12075B   26279.43456186 -.00000043  00000+0  00000+0 0  9994
2 39035   0.0159 122.9577 0001371  83.7897 209.9920  1.00267739  8165
TDRS 11                 
1 39070U 13004A   26281.21730352  .00000068  00000+0  00000+0 0  9991
2 39070   3.6950  32.8900 0002447  34.6579 213.2385  1.00276559 47827
AMAZONAS 3              
1 39078U 13006A   26279.43546234 -.00000300  00000+0  00000+0 0  9996
2 39078   0.0200 204.8705 0005257 358.7183 267.3007  1.00272936 46040
AZERSPACE 1             
1 39079U 13006B   26280.46416454  .00000117  00000+0  00000+0 0  9997
2 39079   0.0265  91.5600 0001801 130.6802   6.9752  1.00270416 49939
SBIRS GEO-2 (USA 241)   
1 39120U 13011A   26281.08410560 -.00000156  00000+0  00000+0 0  9995
2 39120   4.7320  52.4173 0002539 152.0266 105.7822  1.00271605 49668
EUTELSAT 117 WEST A     
1 39122U 13012A   26281.17812490 -.00000028  00000+0  00000+0 0  9994
2 39122   0.0516  50.6900 0002844 147.1625 126.2980  1.00271681 49563
ANIK G1                 
1 39127U 13014A   26281.12336918 -.00000089  00000+0  00000+0 0  9999
2 39127   0.0520  78.5726 0003174 132.0285 103.2909  1.00271908 49388
ZHONGXING-11            
1 39157U 13020A   26281.04473611 -.00000305  00000+0  00000+0 0  9993
2 39157   0.0300 317.9049 0000452 244.8574 287.9209  1.00268993 49039
EUTELSAT 7B             
1 39163U 13022A   26280.24440918  .00000087  00000+0  00000+0 0  9993
2 39163   0.0722 348.3762 0002835 123.0339   8.5081  1.00273743 49076
WGS F5 (USA 243)        
1 39168U 13024A   26281.11409617  .00000000  00000+0  00000+0 0  9993
2 39168   0.0203 199.5036 0000304 333.1096 192.7234  1.00268151 48317
SES-6                   
1 39172U 13026A   26281.08858961 -.00000276  00000+0  00000+0 0  9992
2 39172   0.0330  29.7094 0001964 165.3895 173.0498  1.00271162 48855
IRNSS-1A                
1 39199U 13034A   26274.47906317  .00000078  00000+0  00000+0 0  9993
2 39199  35.9547  62.3509 0021244 181.2766 354.2097  1.00269027 48431
MUOS-2                  
1 39206U 13036A   26280.63169177 -.00000024  00000+0  00000+0 0  9996
2 39206   5.2189  45.5455 0058081 178.7221 191.4803  1.00269174 48328
ALPHASAT                
1 39215U 13038A   26280.24622919  .00000120  00000+0  00000+0 0  9999
2 39215   3.0052   0.4960 0003871 207.2284 281.7029  1.00272053 45148
INSAT-3D                
1 39216U 13038B   26280.97968088 -.00000352  00000+0  00000+0 0  9998
2 39216   2.2112  80.9814 0001847 134.7730 283.0885  1.00271119 48217
WGS F6 (USA 244)        
1 39222U 13041A   26280.48429469  .00000073  00000+0  00000+0 0  9999
2 39222   0.0017 162.0694 0000204 138.2260 114.9956  1.00271684 47188
ES'HAIL 1               
1 39233U 13044A   26281.10158965  .00000128  00000+0  00000+0 0  9995
2 39233   0.0561   2.4030 0002246 187.2088 249.2262  1.00268540 47757
GSAT-7                  
1 39234U 13044B   26281.11120970 -.00000092  00000+0  00000+0 0  9993
2 39234   0.3659  86.0307 0006204 169.9716 234.8080  1.00271400 46393
AMOS-4                  
1 39237U 13045A   26281.10947637 -.00000008  00000+0  00000+0 0  9990
2 39237   0.0324 106.7057 0001134 101.7906 272.6980  1.00272512 48099
AEHF-3 (USA 246)        
1 39256U 13050A   26281.18700251  .00000018  00000+0  00000+0 0  9994
2 39256   5.5680  66.0800 0092965 189.2250  64.6654  1.00275005 46785
ASTRA 2E                
1 39285U 13056A   26281.10219632  .00000135  00000+0  00000+0 0  9992
2 39285   0.0797 312.3916 0002126 244.8839 244.7696  1.00271194 47550
FM-6                    
1 39360U 13058A   26281.17812486 -.00000030  00000+0  00000+0 0  9996
2 39360   0.0220 252.1300 0000278  34.4096  38.0621  1.00269638 47201
RADUGA-1M 3             
1 39375U 13062A   26279.93865931  .00000141  00000+0  00000+0 0  9993
2 39375   6.2411  70.9145 0001974 291.8887  25.6642  1.00272101 47227
SES-8                   
1 39460U 13071A   26281.04412946 -.00000285  00000+0  00000+0 0  9997
2 39460   0.0401 284.8839 0001648 239.2312 323.4760  1.00273190 45560
INMARSAT 5-F1           
1 39476U 13073A   26280.03987505  .00000000  00000+0  00000+0 0  9996
2 39476   0.0206 182.6098 0000298   9.4304 260.6213  1.00266191 46693
TKSAT-1 (TUPAC KATARI)  
1 39481U 13075A   26281.07931624 -.00000210  00000+0  00000+0 0  9994
2 39481   0.0668  61.7978 0001963 130.5275 125.7725  1.00270743 46730
EXPRESS-AM5             
1 39487U 13077A   26280.98176089 -.00000295  00000+0  00000+0 0  9990
2 39487   0.0200 243.5801 0002343 243.1496  23.3878  1.00272849 47497
GSAT-14                 
1 39498U 14001A   26281.11120970 -.00000092  00000+0  00000+0 0  9999
2 39498   0.0476  80.4517 0006150 149.9026 260.4611  1.00271579 46518
THAICOM 6               
1 39500U 14002A   26281.11216303 -.00000136  00000+0  00000+0 0  9999
2 39500   0.0718 102.5899 0003088  70.5657 322.5308  1.00271707 46590
TDRS 12                 
1 39504U 14004A   26281.04788649 -.00000282  00000+0  00000+0 0  9996
2 39504   4.0986  20.8062 0006668 225.6530 106.4912  1.00275945 45406
ABS-2                   
1 39508U 14006A   26281.11138303 -.00000101  00000+0  00000+0 0  9996
2 39508   0.0520  75.6875 0003453 123.8034 292.3003  1.00271868 46415
ATHENA-FIDUS            
1 39509U 14006B   26281.10410301  .00000139  00000+0  00000+0 0  9997
2 39509   0.0135 146.4047 0001456  68.2914 237.3343  1.00272056 46210
TURKSAT 4A              
1 39522U 14007A   26281.10488301  .00000131  00000+0  00000+0 0  9990
2 39522   0.0682 285.5097 0004478 332.1600 198.8354  1.00269093 46102
EXPRESS-AT1             
1 39612U 14010A   26281.11216304 -.00000148  00000+0  00000+0 0  9996
2 39612   0.5428  84.0590 0004751  97.2414 314.5941  1.00313817 45956
EXPRESS-AT2             
1 39613U 14010B   26281.10765634  .00000000  00000+0  00000+0 0  9997
2 39613   0.0236 207.5368 0000122 198.5150  65.4489  1.00271098 45632
AMAZONAS 4A             
1 39616U 14011A   26281.08191625 -.00000267  00000+0  00000+0 0  9997
2 39616   0.0503 185.6861 0006523  15.1976 131.3336  1.00269369 45842
ASTRA 5B                
1 39617U 14011B   26281.10124300  .00000122  00000+0  00000+0 0  9996
2 39617   0.0918 296.0590 0003692 276.7852 223.8751  1.00273408 45792
IRNSS-1B                
1 39635U 14017A   26277.97143676  .00000088  00000+0  00000+0 0  9990
2 39635  29.1654 238.5189 0019437 192.1288 347.9124  1.00278702 45899
LUCH-5V                 
1 39727U 14023A   26280.97274752 -.00000279  00000+0  00000+0 0  9996
2 39727   5.4103  68.5052 0003085 165.9189 227.1598  1.00271174 45493
KAZSAT-3                
1 39728U 14023B   26281.10817637  .00000046  00000+0  00000+0 0  9999
2 39728   0.0181 256.8973 0000013   5.9327 211.3867  1.00270576 43598
EUTELSAT 3B             
1 39773U 14030A   26281.09716963  .00000005  00000+0  00000+0 0  9990
2 39773   0.0656  10.1174 0004218 183.1840 221.5257  1.00271809 45193
ASIASAT 8 (AMOS-7)      
1 40107U 14046A   26281.11503035 -.00000348  00000+0  00000+0 0  9998
2 40107   0.0290 263.1388 0001760 315.3919 304.9639  1.00271128103281
ASIASAT 6               
1 40141U 14052A   26281.08725346 -.00000377  00000+0  00000+0 0  9992
2 40141   0.0488  68.8133 0000766 117.2510 342.0097  1.00270726 44218
OPTUS 10                
1 40146U 14054A   26280.77107345 -.00000163  00000+0  00000+0 0  9990
2 40146   0.0874 259.7386 0002061 292.8940 257.3860  1.00272676 44155
MEASAT-3B               
1 40147U 14054B   26281.11467639 -.00000257  00000+0  00000+0 0  9999
2 40147   0.0364  44.7255 0000626 115.2082 349.6262  1.00270766 44055
HIMAWARI-8              
1 40267U 14060A   26280.98184756 -.00000291  00000+0  00000+0 0  9997
2 40267   0.0489  43.8006 0001327 192.4501 274.5142  1.00272388 43898
IRNSS-1C                
1 40269U 14061A   26281.04170278 -.00000170  00000+0  00000+0 0  9998
2 40269   6.7996  86.7612 0019329   9.1576  18.6575  1.00275594 43824
INTELSAT 30 (IS-30)     
1 40271U 14062A   26281.05362750  .00000000  00000+0  00000+0 0  9992
2 40271   0.0120 169.6853 0001463 237.6850 253.5766  1.00267660  7922
ARSAT 1                 
1 40272U 14062B   26281.14636242 -.00000275  00000+0  00000+0 0  9998
2 40272   0.0250 285.5151 0001695 272.2482 159.9258  1.00270819 43755
EUTELSAT 53A            
1 40277U 14064A   26281.10704969  .00000083  00000+0  00000+0 0  9999
2 40277   0.0184 228.4653 0001881 323.3953 276.4422  1.00272255 42705
GSAT-16                 
1 40332U 14078A   26280.60855170  .00000069  00000+0  00000+0 0  9995
2 40332   0.0520  81.9890 0004811  38.5326 169.9173  1.00271044 43245
DIRECTV 14              
1 40333U 14078B   26280.50671801  .00000000  00000+0  00000+0 0  9997
2 40333   0.0135 208.1328 0000736 227.6830  23.5226  1.00270129 43179
YAMAL 401               
1 40345U 14082A   26281.11441639 -.00000244  00000+0  00000+0 0  9998
2 40345   0.0136 226.1855 0000034 202.0553  79.6624  1.00273721 43050
ASTRA 2G                
1 40364U 14089A   26281.10219632  .00000000  00000+0  00000+0 0  9990
2 40364   0.0258   0.6715 0002247  94.6099 346.4438  1.00268908 43097
FENGYUN 2G              
1 40367U 14090A   26280.97370086 -.00000310  00000+0  00000+0 0  9995
2 40367   5.9186  71.3953 0004465 188.1580 207.0921  1.00263039 43135
MUOS-3                  
1 40374U 15002A   26281.09352963 -.00000139  00000+0  00000+0 0  9994
2 40374   4.7387  43.8454 0058996 180.1276 171.0249  1.00272153 42718
INMARSAT 5-F2           
1 40384U 15005A   26280.32629116 -.00000302  00000+0  00000+0 0  9992
2 40384   0.0049 106.8837 0000061  20.6747 310.8382  1.00263593 42112
ABS-3A                  
1 40424U 15010A   26280.66835191 -.00000043  00000+0  00000+0 0  9994
2 40424   0.0110 208.2376 0001780 283.9397 121.7490  1.00270937 42507
EUTELSAT 115 WEST B     
1 40425U 15010B   26280.68965405 -.00000041  00000+0  00000+0 0  9997
2 40425   0.0180  47.0502 0000165 140.3648 322.2984  1.00271888 42519
EXPRESS-AM7             
1 40505U 15012A   26281.10453633  .00000000  00000+0  00000+0 0  9995
2 40505   0.0205 187.7113 0003135  12.4030 254.2449  1.00270990 42131
BEIDOU-3S IGSO-1S       
1 40549U 15019A   26280.47014294 -.00000171  00000+0  00000+0 0  9995
2 40549  48.9829 294.0972 0038852 201.3739 146.6824  1.00282499 42190
THOR 7                  
1 40613U 15022A   26281.09647631 -.00000023  00000+0  00000+0 0  9993
2 40613   0.0137 207.3862 0002711 353.7139 209.7458  1.00274362 41945
TURKMENALEM52E/MONACOSAT
1 40617U 15023A   26281.10687634  .00000089  00000+0  00000+0 0  9998
2 40617   0.0353  81.3927 0002978 115.7124 270.1488  1.00271704 41982
DIRECTV 15              
1 40663U 15026A   26280.50602468 -.00000119  00000+0  00000+0 0  9992
2 40663   0.0383  82.1062 0000148  99.1403 274.2020  1.00270887 41581
SKY MEXICO-1            
1 40664U 15026B   26281.14495757  .00000000  00000+0  00000+0 0  9993
2 40664   0.0194 202.6992 0001941 352.3211 155.1525  1.00269415 41588
METEOSAT-11 (MSG-4)     
1 40732U 15034A   26280.67086525  .00000053  00000+0  00000+0 0  9992
2 40732   3.4780  70.2824 0000462 107.3282  89.8651  1.00280226  8341
STAR ONE C4             
1 40733U 15034B   26281.14629666 -.00000280  00000+0  00000+0 0  9998
2 40733   0.0106  14.0312 0000939 194.5593 150.8682  1.00268809 41148
WGS F7 (USA 263)        
1 40746U 15036A   26280.63229845  .00000002  00000+0  00000+0 0  9993
2 40746   0.0120 209.3149 0000077 209.1251   0.5285  1.00272140 40997
INTELSAT 34 (IS-34)     
1 40874U 15039A   26281.08564293 -.00000301  00000+0  00000+0 0  9990
2 40874   0.0262 293.1650 0000462  13.8734  45.0476  1.00269929 40760
EUTELSAT 8 WEST B       
1 40875U 15039B   26281.09500296 -.00000081  00000+0  00000+0 0  9990
2 40875   0.0698 346.0492 0003626 211.2934 205.6035  1.00271587 40787
GSAT-6                  
1 40880U 15041A   26281.11285638 -.00000173  00000+0  00000+0 0  9994
2 40880   2.2040  81.0300 0002993 119.5552 299.3402  1.00270714 40738
INMARSAT 5-F3           
1 40882U 15042A   26280.20558237  .00000033  00000+0  00000+0 0  9998
2 40882   0.0049 105.6203 0001269 282.6853 241.1587  1.00271763 40690
MUOS-4                  
1 40887U 15044A   26280.96893417 -.00000104  00000+0  00000+0 0  9990
2 40887   4.5434  42.7395 0052039   2.5334  35.1502  1.00271748 40690
TJS-1                   
1 40892U 15046A   26280.91329398 -.00000171  00000+0  00000+0 0  9999
2 40892   0.6083  83.6363 0002862 100.1530 316.5499  1.00269775 40704
EXPRESS-AM8             
1 40895U 15048A   26281.11074715 -.00000126  00000+0  00000+0 0  9997
2 40895   0.0117 245.2710 0000103 222.8378 294.5331  1.00272297 40476
BEIDOU-3S IGSO-2S       
1 40938U 15053A   26280.90185391 -.00000156  00000+0  00000+0 0  9993
2 40938  49.0557 257.4309 0065225 192.6387 347.5511  1.00278532 40482
SKY MUSTER 1 (NBN1A)    
1 40940U 15054A   26280.98184756 -.00000294  00000+0  00000+0 0  9992
2 40940   0.0188 232.9956 0001770 321.6351 315.7256  1.00270791 40390
ARSAT 2                 
1 40941U 15054B   26281.08052957 -.00000240  00000+0  00000+0 0  9993
2 40941   0.0224 276.8424 0001950 279.5339 128.3498  1.00271003 40434
MORELOS 3               
1 40946U 15056A   26280.29016933 -.00000057  00000+0  00000+0 0  9992
2 40946   3.2917  17.7716 0003433 181.5981 167.9438  1.00267741 40406
APSTAR-9                
1 40982U 15059A   26280.98202089 -.00000281  00000+0  00000+0 0  9999
2 40982   0.0396 348.5495 0002790 202.2492 321.3686  1.00273835 40248
TURKSAT 4B              
1 40984U 15060A   26281.10644301  .00000000  00000+0  00000+0 0  9993
2 40984   0.0221 205.8251 0001664 346.3916 272.8080  1.00272723 40234
ZHONGXING-2C            
1 41021U 15063A   26281.04577612 -.00000338  00000+0  00000+0 0  9997
2 41021   0.5588  86.0499 0010016 126.1269 284.4242  1.00268300 40119
GSAT-15                 
1 41028U 15065A   26280.04594175 -.00000274  00000+0  00000+0 0  9997
2 41028   0.0371  84.1467 0002009 110.4696 291.1326  1.00269590 39925
BADR-7 (ARABSAT-6B)     
1 41029U 15065B   26280.24640252  .00000128  00000+0  00000+0 0  9995
2 41029   0.0448 240.3677 0007156 346.9232 263.3551  1.00274513 39898
LAOSAT 1                
1 41034U 15067A   26281.01900181 -.00000358  00000+0  00000+0 0  9995
2 41034   0.0266 302.6130 0001984 195.6902  13.6952  1.00267954 39997
TELSTAR 12V             
1 41036U 15068A   26281.09361630  .00000000  00000+0  00000+0 0  9999
2 41036   0.0213 191.2916 0002087   6.1990 197.9479  1.00269537 39756
ELEKTRO-L 2             
1 41105U 15074A   26280.66609856 -.00000128  00000+0  00000+0 0  9992
2 41105   6.9715  69.0948 0002618 196.3182 336.1711  1.00270572 39631
COSMOS 2513             
1 41121U 15075A   26279.51280825 -.00000155  00000+0  00000+0 0  9994
2 41121   0.0536  97.8478 0002215 137.6461  44.5608  1.00270251 39665
EXPRESS-AMU1            
1 41191U 15082A   26281.10375633  .00000141  00000+0  00000+0 0  9993
2 41191   0.0163 247.2341 0002696 322.4517 240.5377  1.00274067 39397
GAOFEN-4                
1 41194U 15083A   26281.04620944 -.00000349  00000+0  00000+0 0  9999
2 41194   0.6426  82.9763 0003496 145.6854 270.3856  1.00270567 39662
BELINTERSAT-1           
1 41238U 16001A   26281.10678969  .00000092  00000+0  00000+0 0  9990
2 41238   0.0201 269.9113 0000226 142.1129  54.6734  1.00271346 39379
IRNSS-1E                
1 41241U 16003A   26280.80281002 -.00000292  00000+0  00000+0 0  9993
2 41241  33.4803  58.1256 0022552 180.8016 178.3384  1.00276627 39201
EUTELSAT 9B             
1 41310U 16005A   26281.09838299  .00000047  00000+0  00000+0 0  9997
2 41310   0.0669  65.0806 0003342 163.4004 192.6790  1.00272038 39242
SES-9                   
1 41380U 16013A   26280.47655791 -.00000361  00000+0  00000+0 0  9998
2 41380   0.0090 159.9450 0001448 344.3562 151.7051  1.00271651 38569
EUTELSAT 65 WEST A      
1 41382U 16014A   26281.08364958 -.00000291  00000+0  00000+0 0  9993
2 41382   0.0725 313.5525 0002224 247.2044 140.8835  1.00269279 38658
IRNSS-1F                
1 41384U 16015A   26281.10297633  .00000148  00000+0  00000+0 0  9994
2 41384   5.6275  94.1848 0020926 173.3148 178.6930  1.00270036 38797
BEIDOU-2 IGSO-6         
1 41434U 16021A   26280.75199079 -.00000174  00000+0  00000+0 0  9992
2 41434  60.3888  36.9289 0062771 228.9552 117.9044  1.00277369 38602
IRNSS-1G                
1 41469U 16027A   26280.52483318 -.00000345  00000+0  00000+0 0  9993
2 41469   5.4693  94.8569 0002212  49.4584 190.3703  1.00271900 38302
JCSAT-2B                
1 41471U 16028A   26280.91329397  .00000000  00000+0  00000+0 0  9993
2 41471   0.0230 187.7060 0000931  19.5069 292.1346  1.00269223 38267
THAICOM 8               
1 41552U 16031A   26281.11216303 -.00000136  00000+0  00000+0 0  9993
2 41552   0.0717  26.1380 0000240  80.7531  28.7675  1.00269934 37856
INTELSAT 31 (IS-31)     
1 41581U 16035A   26280.46435159 -.00000167  00000+0  00000+0 0  9992
2 41581   0.0147 229.0433 0001715  16.5411 202.6757  1.00271372 37808
BEIDOU-2 G7             
1 41586U 16037A   26280.97595420 -.00000367  00000+0  00000+0 0  9995
2 41586   1.9957  69.6909 0004740 346.0390  62.8125  1.00272681  8027
ABS-2A (MONGOLSAT-1)    
1 41588U 16038A   26281.11138303  .00000000  00000+0  00000+0 0  9991
2 41588   0.0226 199.5663 0001498 309.1451 342.8685  1.00267284 37840
EUTELSAT 117 WEST B     
1 41589U 16038B   26281.17812397 -.00000027  00000+0  00000+0 0  9990
2 41589   0.0188  46.1513 0000104 152.5149 125.3213  1.00273115 37791
BRISAT                  
1 41591U 16039A   26280.19977568  .00000000  00000+0  00000+0 0  9997
2 41591   0.0215 212.8967 0002073 340.1139  45.2479  1.00268607 37739
ECHOSTAR 18             
1 41592U 16039B   26279.43546304  .00000000  00000+0  00000+0 0  9993
2 41592   0.0224 183.1093 0001474  17.9617 269.4519  1.00267985 37748
MUOS-5                  
1 41622U 16041A   26280.64772517 -.00000171  00000+0  00000+0 0  9992
2 41622   1.9743 304.3654 0204598 261.0559 299.0314  1.00271108 38214
TIANTONG-1 1            
1 41725U 16048A   26280.90280727 -.00000329  00000+0  00000+0 0  9994
2 41725   4.0689  44.1370 0000999 101.1379 297.6890  1.00269599 37402
JCSAT-16                
1 41729U 16050A   26280.64003029 -.00000267  00000+0  00000+0 0  9991
2 41729   0.0027 113.1091 0000777  88.8621 188.7067  1.00272327 37207
USA 270                 
1 41744U 16052A   26279.26833448 -.00000366  00000+0  00000+0 0  9992
2 41744   4.4756  75.7141 0008472 120.4996  41.1189  1.00259092 29244
USA 271                 
1 41745U 16052B   26279.37684161 -.00000234  00000+0  00000+0 0  9995
2 41745   4.4505  75.7940 0003286 177.4304 211.7116  0.99063068 29032
INTELSAT 36 (IS-36)     
1 41747U 16053A   26280.46867122  .00000000  00000+0  00000+0 0  9990
2 41747   0.0122 206.0882 0002151 144.6830 262.5635  1.00270738 37086
INSAT-3DR               
1 41752U 16054A   26281.11120970 -.00000092  00000+0  00000+0 0  9995
2 41752   0.0944  86.2620 0012508 178.9438 225.5873  1.00271277 36950
GSAT-18                 
1 41793U 16060A   26281.03996942 -.00000092  00000+0  00000+0 0  9998
2 41793   0.0690  84.5145 0001806  50.3652 330.1404  1.00271462 36663
SKY MUSTER 2 (NBN1B)    
1 41794U 16060B   26280.91147397 -.00000260  00000+0  00000+0 0  9994
2 41794   0.0182 233.4377 0001551 322.6054 293.4716  1.00270571 36656
HIMAWARI-9              
1 41836U 16064A   26280.19786900 -.00000292  00000+0  00000+0 0  9999
2 41836   0.0217 309.3604 0001025 281.7521 356.7477  1.00272002 36331
SHIJIAN-17 (SJ-17)      
1 41838U 16065A   26281.03901610  .00000031  00000+0  00000+0 0  9993
2 41838   6.0344  71.1901 0001418  95.0779 293.9633  0.99851238 36338
GOES 16                 
1 41866U 16071A   26281.07584955 -.00000105  00000+0  00000+0 0  9997
2 41866   0.6156  83.9650 0002178 149.2161  66.1514  1.00271265 36239
TIANLIAN 1-04           
1 41869U 16072A   26281.06042285  .00000017  00000+0  00000+0 0  9996
2 41869   1.1524  81.7735 0047410  98.9059  34.5816  1.00270722 36434
WGS F8 (USA 272)        
1 41879U 16075A   26280.32802955 -.00000219  00000+0  00000+0 0  9991
2 41879   0.0090 216.6997 0000117 135.6083 291.5845  1.00271228 35943
FENGYUN 4A              
1 41882U 16077A   26280.98933709 -.00000371  00000+0  00000+0 0  9990
2 41882   2.6026  78.8401 0008410 168.1388 248.9743  1.00273522 36061
ECHOSTAR 19             
1 41893U 16079A   26280.00824159 -.00000156  00000+0  00000+0 0  9996
2 41893   0.0036 109.1863 0001468  88.5606  83.8000  1.00271771 35829
JCSAT-110A (JCSAT-15)   
1 41903U 16082A   26280.26295591 -.00000367  00000+0  00000+0 0  9996
2 41903   0.0188 175.6436 0000956  29.8844  15.1315  1.00270798 35887
STAR ONE D1             
1 41904U 16082B   26280.29588935 -.00000227  00000+0  00000+0 0  9992
2 41904   0.0125 137.4861 0002096  59.8713 201.1143  1.00268739 35891
TJS-2                   
1 41911U 17001A   26281.03849610 -.00000021  00000+0  00000+0 0  9997
2 41911   1.1184  83.5319 0002105 168.4559 205.1103  1.00271525 35854
SBIRS GEO-4 (USA 273)   
1 41937U 17004A   26281.09240295 -.00000179  00000+0  00000+0 0  9992
2 41937   2.4653  45.8072 0001771 147.8207 195.1859  1.00271420 35729
HISPASAT 36W-1          
1 41942U 17006A   26281.01821601 -.00000260  00000+0  00000+0 0  9999
2 41942   0.0184  21.3945 0001045 168.1953 157.6468  1.00271441 35377
TELKOM 3S               
1 41944U 17007A   26281.03983562 -.00000378  00000+0  00000+0 0  9999
2 41944   0.0181 246.0591 0002323 322.5500 300.4330  1.00270776 35278
INTELSAT 32E (IS-32E)   
1 41945U 17007B   26281.08806961  .00000000  00000+0  00000+0 0  9993
2 41945   0.0229 199.0487 0000090 271.6712 254.5315  1.00266834 35352
ECHOSTAR 23             
1 42070U 17014A   26280.64720517  .00000000  00000+0  00000+0 0  9994
2 42070   0.0221 187.5594 0001925 359.5341 312.2938  1.00269176 35059
WGS F9 (USA 275)        
1 42075U 17016A   26280.29697782  .00000000  00000+0  00000+0 0  9999
2 42075   0.0202 197.6862 0000298  55.7278 217.4415  1.00269520 35025
SES-10                  
1 42432U 17017A   26280.65757080 -.00000289  00000+0  00000+0 0  9995
2 42432   0.0157  23.1817 0002869 180.2399 342.7256  1.00270973 34880
CHINASAT 16 (SJ-13)     
1 42662U 17018A   26280.63568916 -.00000368  00000+0  00000+0 0  9995
2 42662   0.0866  88.0355 0007814 145.7245 121.9054  1.00267639 34877
KOREASAT 7              
1 42691U 17023A   26280.64273032 -.00000378  00000+0  00000+0 0  9997
2 42691   0.0180  30.8015 0001432 204.2381 128.5471  1.00270630 34497
SGDC                    
1 42692U 17023B   26280.16394764  .00000000  00000+0  00000+0 0  9992
2 42692   0.0133 172.9868 0002522  37.2622 149.7365  1.00269275 34527
GSAT-9                  
1 42695U 17024A   26281.04456279 -.00000301  00000+0  00000+0 0  9999
2 42695   0.0831  86.4540 0002678 104.5045 299.1059  1.00268508 34438
INMARSAT 5-F4           
1 42698U 17025A   26280.60889837  .00000000  00000+0  00000+0 0  9999
2 42698   0.0209 188.6570 0000365  21.5389  81.7795  1.00270943 34403
SES-15                  
1 42709U 17026A   26280.21572240  .00000042  00000+0  00000+0 0  9993
2 42709   0.0336 324.7075 0000884 226.2852 133.3955  1.00273243  8550
QZS-2 (MICHIBIKI-2)     
1 42738U 17028A   26280.76622012 -.00000237  00000+0  00000+0 0  9997
2 42738  39.2655 241.4987 0746805 270.7593 280.1632  1.00254559  8757
VIASAT-2                
1 42740U 17029A   26280.22742244 -.00000282  00000+0  00000+0 0  9992
2 42740   0.0140 243.8664 0001303 273.5525 230.4061  1.00271546 34316
EUTELSAT 172B           
1 42741U 17029B   26280.20402236 -.00000022  00000+0  00000+0 0  9997
2 42741   0.0244 145.7603 0000141 212.9450 262.6325  1.00271548 34871
GSAT-19                 
1 42747U 17031A   26280.60716502  .00000110  00000+0  00000+0 0  9991
2 42747   0.0864  86.0187 0006688  77.8532 118.8251  1.00268052 34270
ECHOSTAR 21             
1 42749U 17032A   26279.60181384  .00000050  00000+0  00000+0 0  9999
2 42749   1.7892   2.8521 0002369 196.4032  42.9572  1.00273553 34213
BULGARIASAT-1           
1 42801U 17038A   26281.09699631 -.00000004  00000+0  00000+0 0  9999
2 42801   0.0573  85.8360 0002686 113.6564 214.0857  1.00271044 33978
HELLAS-SAT 3            
1 42814U 17040A   26281.10427633  .00000137  00000+0  00000+0 0  9995
2 42814   0.0720  44.1192 0000682  73.6516 335.5113  1.00272292 33940
GSAT-17                 
1 42815U 17040B   26281.11510971 -.00000273  00000+0  00000+0 0  9997
2 42815   0.0679  83.8724 0005429 167.0937 260.7364  1.00270455 33928
INTELSAT 35E (IS-35E)   
1 42818U 17041A   26280.66202522 -.00000254  00000+0  00000+0 0  9999
2 42818   0.0062 100.7677 0002079 104.6178  14.7515  1.00270812 33949
COSMOS 2520             
1 42907U 17046A   26280.25021587  .00000120  00000+0  00000+0 0  9999
2 42907   0.0260 124.1556 0000223 290.8669  95.9877  1.00273058 33527
TDRS 13                 
1 42915U 17047A   26281.09430963 -.00000112  00000+0  00000+0 0  9996
2 42915   3.4948   5.4416 0012377 125.1091 268.7225  1.00271380 33482
QZS-3 (MICHIBIKI-3)     
1 42917U 17048A   26281.03636383 -.00000363  00000+0  00000+0 0  9995
2 42917   0.0510 192.9935 0002028  18.7184 305.1248  1.00273541 33394
AMAZONAS 5              
1 42934U 17053A   26272.38881078 -.00000278  00000+0  00000+0 0  9996
2 42934   0.0466 321.3720 0001989 272.9722 212.7957  1.00256662 33081
ASIASAT 9               
1 42942U 17057A   26281.07058625 -.00000375  00000+0  00000+0 0  9997
2 42942   0.0135 212.8443 0002359 343.0444 328.3828  1.00271927 33017
INTELSAT 37E (IS-37E)   
1 42950U 17059A   26281.09300963 -.00000156  00000+0  00000+0 0  9992
2 42950   0.0202 233.9637 0002879 328.8604 189.3994  1.00270430 33192
BSAT-4A                 
1 42951U 17059B   26281.11503035 -.00000365  00000+0  00000+0 0  9993
2 42951   0.0724  50.9085 0000778  43.4115  73.6993  1.00272160 32936
QZS-4 (MICHIBIKI-4)     
1 42965U 17062A   26279.48690876 -.00000329  00000+0  00000+0 0  9999
2 42965  40.0344 342.0613 0750098 270.1724  78.5393  1.00267730 32910
SES-11 (ECHOSTAR 105)   
1 42967U 17063A   26281.07584955 -.00000105  00000+0  00000+0 0  9992
2 42967   0.0289 305.9628 0002857 245.2328 107.8956  1.00271673 32851
KOREASAT 5A             
1 42984U 17067A   26281.10947538 -.00000373  00000+0  00000+0 0  9996
2 42984   0.0274 270.9314 0001369 335.8316 282.5667  1.00271005 32665
ALCOMSAT 1              
1 43039U 17078A   26281.09162294 -.00000201  00000+0  00000+0 0  9996
2 43039   0.0466 346.0038 0001924 225.6189 173.3156  1.00271585 32426
SBIRS GEO-3 (USA 282)   
1 43162U 18009A   26281.06501618  .00000115  00000+0  00000+0 0  9995
2 43162   2.2809  17.1016 0001884 183.5196  40.1082  1.00272485 31973
AL YAH 3                
1 43174U 18012A   26280.31920038 -.00000170  00000+0  00000+0 0  9992
2 43174   1.8357  81.5686 0003556 119.0196 270.2215  1.00271042 31971
SES-14                  
1 43175U 18012B   26280.27961501 -.00000295  00000+0  00000+0 0  9996
2 43175   0.0471  42.8038 0000933 154.5964 231.7097  1.00270492  8145
GOES 17                 
1 43226U 18022A   26281.07888291 -.00000197  00000+0  00000+0 0  9998
2 43226   1.2226  83.7860 0001077 155.9489  75.9047  1.00272311 31553
HISPASAT 30W-6          
1 43228U 18023A   26280.23530914 -.00000233  00000+0  00000+0 0  9995
2 43228   0.0471  40.3038 0002334 136.4373 253.8898  1.00270243 31523
SUPERBIRD-B3            
1 43271U 18033A   26280.62969844 -.00000108  00000+0  00000+0 0  9996
2 43271   0.0433  72.4871 0001202 122.1819 210.3273  1.00270787 31180
HYLAS 4                 
1 43272U 18033B   26280.66219855 -.00000250  00000+0  00000+0 0  9999
2 43272   0.0811 271.2042 0001140 308.3658   1.6491  1.00270056 31193
IRNSS-1I                
1 43286U 18035A   26278.00813291  .00000086  00000+0  00000+0 0  9991
2 43286  29.0107  72.4877 0021110 178.2558 180.9667  1.00270153 31178
USA 283                 
1 43339U 18036A   26277.98584045  .00000000  00000+0  00000+0 0  9995
2 43339   0.0148 181.8300 0000082 101.5980 219.2303  1.00268954 26397
COSMOS 2526             
1 43432U 18037A   26280.90809396 -.00000360  00000+0  00000+0 0  9995
2 43432   0.0015 268.6976 0000484 212.2442 350.5988  1.00274670 31099
APSTAR-6C               
1 43450U 18041A   26280.83798037 -.00000334  00000+0  00000+0 0  9992
2 43450   0.0332  24.1028 0002326 224.6831 203.3729  1.00268897 30945
BANGABANDHUSAT-1        
1 43463U 18044A   26280.62120507 -.00000378  00000+0  00000+0 0  9995
2 43463   0.0102 147.1504 0002694  62.2175 149.6343  1.00269442 30833
SES-12                  
1 43488U 18049A   26280.47395789 -.00000286  00000+0  00000+0 0  9994
2 43488   0.0490  47.0088 0002164 201.9822  32.7748  1.00271765 30548
FENGYUN 2H              
1 43491U 18050A   26281.11224971 -.00000140  00000+0  00000+0 0  9995
2 43491   3.3157  77.6396 0003130 157.6853 261.1067  1.00269596 30578
BEIDOU-2 IGSO-7         
1 43539U 18057A   26280.62733896 -.00000123  00000+0  00000+0 0  9992
2 43539  55.2117 162.0945 0107704 236.2530 316.2858  1.00269718 30251
TELSTAR 19V             
1 43562U 18059A   26280.46769007 -.00000296  00000+0  00000+0 0  9996
2 43562   0.0196 207.0623 0002443 348.9232 285.5045  1.00269498 30272
TELKOM 4 (MERAH PUTIH)  
1 43587U 18064A   26281.11503035 -.00000359  00000+0  00000+0 0  9999
2 43587   0.0159 245.0164 0001637 342.3715 298.7918  1.00270953 30013
TELSTAR 18V             
1 43611U 18069A   26279.98354148 -.00000311  00000+0  00000+0 0  9991
2 43611   0.0172 251.2684 0001857 308.6486 307.8143  1.00272015 29769
AZERSPACE 2 (IS-38)     
1 43632U 18074A   26281.10548969  .00000121  00000+0  00000+0 0  9991
2 43632   0.0060  98.3830 0001308  99.9667 261.4951  1.00271765 29586
HORIZONS-3E             
1 43633U 18074B   26280.48843127 -.00000047  00000+0  00000+0 0  9994
2 43633   0.0177 189.2409 0000714  10.2227 161.5228  1.00272285 29468
AEHF-4 (USA 288)        
1 43651U 18079A   26281.14293933 -.00000288  00000+0  00000+0 0  9994
2 43651   1.4255   0.1253 0068682 357.6682   2.9452  1.00269854 29420
BEIDOU-3 G1             
1 43683U 18085A   26280.62935177 -.00000122  00000+0  00000+0 0  9998
2 43683   2.6732  94.1858 0004975  28.5930 280.1228  1.00270608 29180
GSAT-29                 
1 43698U 18089A   26280.60855170  .00000069  00000+0  00000+0 0  9999
2 43698   0.0263  93.3176 0002442 115.3679  81.7075  1.00273718 28913
ES'HAIL 2               
1 43700U 18090A   26280.24640252  .00000000  00000+0  00000+0 0  9993
2 43700   0.0223 180.7964 0001155  40.4996 269.0913  1.00271878 28804
GEO-KOMPSAT-2A          
1 43823U 18100A   26279.93460766  .00000000  00000+0  00000+0 0  9995
2 43823   0.0109  98.6748 0001241  36.8966 344.7336  1.00267465 28753
GSAT-11                 
1 43824U 18100B   26280.61227838 -.00000093  00000+0  00000+0 0  9997
2 43824   0.0142 250.5536 0005474 235.8185 184.3126  1.00271694 28609
GSAT-7A                 
1 43864U 18105A   26280.61011170  .00000010  00000+0  00000+0 0  9994
2 43864   0.0874  84.2561 0002386 121.3156  93.1157  1.00272923 28574
COSMOS 2533             
1 43867U 18107A   26281.11042970 -.00000054  00000+0  00000+0 0  9996
2 43867   0.0273 108.0407 0000203 137.6244 240.8602  1.00274926 28580
TJS-3                   
1 43874U 18110A   26280.77302458  .00000008  00000+0  00000+0 0  9997
2 43874   2.8289  79.0161 0003225  24.5280   6.6111  1.00273157 28555
ZHONGXING-2D            
1 43920U 19001A   26280.97976755 -.00000352  00000+0  00000+0 0  9991
2 43920   0.0524  34.4008 0001816 262.0080 202.9520  1.00272605 55210
HELLAS-SAT 4 & SGS-1    
1 44034U 19007A   26280.24900253  .00000136  00000+0  00000+0 0  9993
2 44034   0.0620 127.1697 0006421  40.5986 336.8126  1.00275583 28508
GSAT-31                 
1 44035U 19007B   26280.17949560  .00000108  00000+0  00000+0 0  9999
2 44035   0.0599  79.1379 0005350 161.2459 247.9539  1.00272695 28098
NUSANTARA SATU          
1 44048U 19009A   26279.84257487 -.00000252  00000+0  00000+0 0  9998
2 44048   0.0274 143.3065 0003828  14.4362 307.1091  1.00270974 27895
ZHONGXING-6C            
1 44067U 19012A   26280.51938868 -.00000352  00000+0  00000+0 0  9999
2 44067   0.0561 298.0377 0012879 126.0681 269.5051  1.00270283 27866
WGS 10 (USA 291)        
1 44071U 19014A   26280.60959170  .00000030  00000+0  00000+0 0  9997
2 44071   0.0094 203.2861 0000240  75.5380  17.2115  1.00271835 27741
TIANLIAN 2-01           
1 44076U 19017A   26280.61288505 -.00000122  00000+0  00000+0 0  9996
2 44076   0.8242  82.2417 0003780 141.4766  90.2029  1.00271457 27772
ARABSAT-6A              
1 44186U 19021A   26281.10262968  .00000139  00000+0  00000+0 0  9990
2 44186   0.0507 359.7127 0004400 264.0281 180.4624  1.00274226 27280
BEIDOU-3 IGSO-1         
1 44204U 19023A   26279.74386314 -.00000222  00000+0  00000+0 0  9996
2 44204  58.8535  36.5102 0028485 224.7215 139.6223  1.00258920  8334
BEIDOU-2 G8             
1 44231U 19027A   26280.91138730 -.00000260  00000+0  00000+0 0  9990
2 44231   1.9387  74.1930 0009032 274.4203 140.6143  1.00273227 27219
YAMAL 601               
1 44307U 19031A   26281.10626969  .00000105  00000+0  00000+0 0  9994
2 44307   0.0147 155.3790 0002525  43.6911 264.9515  1.00272618 27064
AT&T T-16               
1 44333U 19034A   26280.05385208 -.00000132  00000+0  00000+0 0  9998
2 44333   0.0254  98.5580 0000306 354.5505 201.1336  1.00268966 26755
EUTELSAT 7C             
1 44334U 19034B   26280.67034525  .00000032  00000+0  00000+0 0  9998
2 44334   0.0687 183.0140 0003187 358.2982  83.3355  1.00270466  7969
BEIDOU-3 IGSO-2         
1 44337U 19035A   26280.62347784 -.00000130  00000+0  00000+0 0  9991
2 44337  55.2502 157.8737 0038506 210.2521 351.9976  1.00265565 26799
COSMOS 2539             
1 44457U 19048A   26281.09898965  .00000066  00000+0  00000+0 0  9999
2 44457   0.0202 129.4771 0000238  63.5671 231.3468  1.00269815 26357
EDRS-C                  
1 44475U 19049A   26280.91095397 -.00000277  00000+0  00000+0 0  9993
2 44475   0.0232 229.0331 0000946 335.3484 282.6285  1.00270988 26345
INTELSAT 39 (IS-39)     
1 44476U 19049B   26281.10886970  .00000018  00000+0  00000+0 0  9993
2 44476   0.0028 179.6147 0000854 280.1953  18.0869  1.00271442 26266
AMOS-17                 
1 44479U 19050A   26279.24675439  .00000092  00000+0  00000+0 0  9998
2 44479   0.0394 358.0229 0001612 199.3585 283.3710  1.00270720 26309
AEHF-5 (USA 292)        
1 44481U 19051A   26281.04378279 -.00000275  00000+0  00000+0 0  9999
2 44481   1.3816 345.7408 0029450   7.0869 132.7104  1.00273950 26398
EUTELSAT 5 WEST B       
1 44624U 19067A   26280.66791858 -.00000058  00000+0  00000+0 0  9993
2 44624   0.0661  12.6986 0003165 185.9692  53.1265  1.00272923 25557
MEV-1                   
1 44625U 19067B   26279.13183389 -.00000164  00000+0  00000+0 0  9996
2 44625   0.7643 267.7988 0004286 290.9873  19.6453  1.00271334 62498
TJS-4                   
1 44637U 19070A   26280.73845852 -.00000185  00000+0  00000+0 0  9994
2 44637   0.0745 290.3856 0004947  18.5550  56.7908  1.00270870 25662
BEIDOU-3 IGSO-3         
1 44709U 19073A   26280.40488036 -.00000175  00000+0  00000+0 0  9997
2 44709  54.6141 279.6735 0046502 198.5794 161.2375  1.00255802 25584
TIBA-1                  
1 44800U 19080A   26281.10358301  .00000141  00000+0  00000+0 0  9998
2 44800   0.0576  16.4900 0002069 183.7686 249.2779  1.00272134 25188
INMARSAT GX5            
1 44801U 19080B   26281.09872964  .00000000  00000+0  00000+0 0  9997
2 44801   0.0175 309.1111 0002293 259.7442 214.4461  1.00273142  7916
JCSAT-18 (KACIFIC 1)    
1 44868U 19091A   26280.91242729 -.00000216  00000+0  00000+0 0  9992
2 44868   0.0401 336.8189 0000100 238.1397 280.0936  1.00272040 25145
ELEKTRO-L 3             
1 44903U 19095A   26280.66878524 -.00000160  00000+0  00000+0 0  9994
2 44903   0.0563 280.5957 0003079 238.5086  97.1410  0.99420762 24831
SHIJIAN-20 (SJ-20)      
1 44910U 19097A   26281.10453633  .00000138  00000+0  00000+0 0  9998
2 44910   5.2034  73.6106 0003782 171.7146 209.3559  1.00275805 24832
TJS-5                   
1 44978U 20002A   26278.97964656 -.00000360  00000+0  00000+0 0  9991
2 44978   0.2727  82.6852 0006403 356.4658  35.6968  1.00272667 24827
GSAT-30                 
1 45026U 20005A   26280.73776672 -.00000181  00000+0  00000+0 0  9996
2 45026   0.0756  84.9173 0001512  84.1066 195.9726  1.00271668 24638
EUTELSAT KONNECT        
1 45027U 20005B   26280.24267583  .00000033  00000+0  00000+0 0  9994
2 45027   0.0694  96.3598 0001555 134.6319 239.5044  1.00273017 25467
JCSAT-17                
1 45245U 20013A   26279.98310815 -.00000335  00000+0  00000+0 0  9997
2 45245   5.4004 357.9159 0004285 198.8305 308.8056  1.00270107 24359
GEO-KOMPSAT-2B          
1 45246U 20013B   26281.03289163 -.00000359  00000+0  00000+0 0  9994
2 45246   0.0403 314.4587 0001779 294.7977 267.5247  1.00269244 24413
BEIDOU-3 G2             
1 45344U 20017A   26280.73656722 -.00000154  00000+0  00000+0 0  9995
2 45344   2.6345  48.7741 0002620 161.2209 151.6265  1.00271747 24386
AEHF-6 (USA 298)        
1 45465U 20022B   26280.56893049 -.00000318  00000+0  00000+0 0  9993
2 45465   2.3171 302.9401 0043664   9.1721  46.6933  1.00271738 24143
BEIDOU-3 G3             
1 45807U 20040A   26280.63590384 -.00000367  00000+0  00000+0 0  9991
2 45807   2.7196  67.3584 0003234 273.0928  15.2543  1.00266302 23192
APSTAR-6D               
1 45863U 20045A   26280.98054755 -.00000332  00000+0  00000+0 0  9995
2 45863   0.0466  96.9815 0002797 346.0393  60.6341  1.00273108 22999
KOREASAT 116            
1 45920U 20048A   26280.64273031 -.00000378  00000+0  00000+0 0  9995
2 45920   0.0285 267.4107 0001417 303.0914 153.3867  1.00268532 22764
EXPRESS 103             
1 45985U 20053A   26280.75106880 -.00000297  00000+0  00000+0 0  9991
2 45985   0.0251 251.3531 0000697 250.5532 241.4044  1.00272394 22770
EXPRESS 80              
1 45986U 20053B   26263.15064726 -.00000146  00000+0  00000+0 0  9992
2 45986   0.0271 170.2364 0064633  63.5597 259.7327  1.00286177 22599
BSAT-4B                 
1 46112U 20056A   26280.63568911 -.00000366  00000+0  00000+0 0  9998
2 46112   0.0610 104.0359 0003703  59.8979 191.0414  1.00272485 22514
MEV-2                   
1 46113U 20056B   26280.66869858 -.00000027  00000+0  00000+0 0  9990
2 46113   0.0162 231.9618 0000303  57.1333 326.9725  1.00271126 81647
GALAXY 30 (G-30)        
1 46114U 20056C   26280.64417183  .00000000  00000+0  00000+0 0  9999
2 46114   0.0202 174.9443 0002363  27.6070 280.6450  1.00271246 22428
GAOFEN-13 01            
1 46610U 20071A   26280.70387340 -.00000378  00000+0  00000+0 0  9994
2 46610   0.1903  80.7290 0056157 120.9232 186.5393  1.00271671 22049
TIANTONG-1 2            
1 46916U 20082A   26280.71711233 -.00000373  00000+0  00000+0 0  9993
2 46916   0.6974 346.6321 0001631 271.6819 141.1174  1.00267533 21788
LUCAS (JDRS-1)          
1 47202U 20089A   26280.69836528 -.00000251  00000+0  00000+0 0  9996
2 47202   0.0117 231.4221 0002506 348.2854 138.8419  1.00270065 21545
SXM-7                   
1 47240U 20096A   26279.93934130 -.00000223  00000+0  00000+0 0  9998
2 47240   0.0190 137.6045 0004596 350.5763 140.4420  1.00272526  8567
CMS-01                  
1 47256U 20099A   26280.73776671 -.00000180  00000+0  00000+0 0  9994
2 47256   0.1033  85.8919 0005992 170.9721 108.1274  1.00270993 21327
TURKSAT 5A              
1 47306U 21001A   26280.57116506  .00000138  00000+0  00000+0 0  9993
2 47306   0.0239 100.6515 0000211 222.0206 290.1068  1.00272455 21096
TIANTONG-1 3            
1 47321U 21003A   26280.73835094 -.00000172  00000+0  00000+0 0  9999
2 47321   1.6943 346.6358 0003867 230.9579 146.1048  1.00269640 21090
TJS-6                   
1 47613U 21010A   26280.63299178  .00000027  00000+0  00000+0 0  9995
2 47613   0.0402 115.5868 0003598  88.0983 218.9773  1.00270250 20932
SBIRS GEO-5 (USA 315)   
1 48618U 21042A   26280.54907571 -.00000290  00000+0  00000+0 0  9992
2 48618   4.9721 330.0346 0001939 234.6737 102.9591  1.00271172 19890
FENGYUN 4B              
1 48808U 21047A   26280.68864728 -.00000345  00000+0  00000+0 0  9990
2 48808   0.4323  81.0695 0008309 278.9641   8.8630  1.00267214 19691
SXM-8                   
1 48838U 21049A   26280.50957802 -.00000222  00000+0  00000+0 0  9996
2 48838   0.0384  25.2957 0005416  11.7919  77.3907  1.00270834 19718
TIANLIAN 1-05           
1 49011U 21063A   26280.67225192  .00000093  00000+0  00000+0 0  9999
2 49011   1.8780  79.5212 0004353 154.3047  41.2894  1.00270554 19200
STAR ONE D2             
1 49055U 21069A   26280.01361493 -.00000282  00000+0  00000+0 0  9997
2 49055   0.0121 196.3217 0002740 349.8447 124.4320  1.00270622 19073
EUTELSAT QUANTUM        
1 49056U 21069B   26280.60707836  .00000000  00000+0  00000+0 0  9995
2 49056   0.0118 205.1921 0002232 354.7888  82.5223  1.00271429 19051
ZHONGXING-2E            
1 49062U 21071A   26280.74788659 -.00000307  00000+0  00000+0 0  9993
2 49062   0.0463 346.6225 0001225 258.7381 138.3539  1.00270928 19166
TJS-7                   
1 49115U 21077A   26280.58713737 -.00000140  00000+0  00000+0 0  9990
2 49115   0.0726 256.0607 0001911  78.8041 153.3150  1.00271303 10683
CHINASAT 9B             
1 49125U 21080A   26281.04534279 -.00000327  00000+0  00000+0 0  9996
2 49125   0.0210 126.5935 0003348  80.9797 286.8307  1.00268525 18782
SHIJIAN-21 (SJ-21)      
1 49330U 21094A   26280.69668797 -.00000358  00000+0  00000+0 0  9996
2 49330   5.3760  60.4151 0054204 173.9121 160.7786  1.00273418  6487
SES-17                  
1 49332U 21095A   26279.94289464  .00000000  00000+0  00000+0 0  9998
2 49332   0.0135 112.6516 0001474  78.5664  96.7296  1.00268298 18976
SYRACUSE 4A             
1 49333U 21095B   26276.97159771  .00000122  00000+0  00000+0 0  9991
2 49333   0.0172 237.0745 0001741 303.0756 227.8282  1.00274071 19035
QZS-1R (MICHIBIKI-1R)   
1 49336U 21096A   26279.77081458 -.00000227  00000+0  00000+0 0  9999
2 49336  37.6948  77.9352 0745746 270.2630  79.6670  1.00279501 18122
ZHONGXING-1D            
1 49505U 21114A   26280.51938866  .00000000  00000+0  00000+0 0  9994
2 49505   0.0095  29.8735 0001681 235.7914  67.6464  1.00271487 17944
STPSAT-6                
1 49817U 21118A   26280.64677184 -.00000060  00000+0  00000+0 0  9998
2 49817   0.6059  83.8232 0001478 202.7120 210.6948  1.00272416 17709
EXPRESS AMU-7           
1 50001U 21123A   26280.62640509 -.00000258  00000+0  00000+0 0  9999
2 50001   0.0253 254.5479 0000179 217.4828 274.7672  1.00273251 17669
EXPRESS AMU-3           
1 50002U 21123B   26280.66855313 -.00000338  00000+0  00000+0 0  9994
2 50002   0.0267 246.5544 0000311 253.2445 220.2171  1.00271910  8165
TIANLIAN 2-02           
1 50005U 21124A   26280.63151844 -.00000029  00000+0  00000+0 0  9990
2 50005   1.0862  84.1540 0004405 161.2479 169.1966  1.00271706 17745
TURKSAT 5B              
1 50212U 21126A   26280.24960920  .00000129  00000+0  00000+0 0  9992
2 50212   0.0788 335.5928 0002529 315.1599 217.0242  1.00270901 17423
INMARSAT 6-F1           
1 50319U 21128A   26280.47170456  .00000000  00000+0  00000+0 0  9992
2 50319   0.0195 180.5570 0000370 293.3785 155.7311  1.00265932 17388
SHIYAN-12 01 (SY-12 01) 
1 50321U 21129A   26280.60924502  .00000007  00000+0  00000+0 0  9997
2 50321   3.9586  78.3142 0002435 180.6493  35.1965  1.00485646 17623
SHIYAN-12 02 (SY-12 02) 
1 50322U 21129B   26280.77072250 -.00000032  00000+0  00000+0 0  9999
2 50322   3.9573  78.3040 0003974 107.7141 274.1901  1.00440475 17633
TJS-9                   
1 50574U 21135A   26280.52669361 -.00000315  00000+0  00000+0 0  9997
2 50574   0.0708  86.8217 0005807 242.1631  14.0316  1.00270083 17553
GOES 18                 
1 51850U 22021A   26280.64183182  .00000080  00000+0  00000+0 0  9993
2 51850   0.0072 334.0083 0000571 294.6977 201.6565  1.00272015  7727
ZHONGXING-6D            
1 52255U 22038A   26280.60767005  .00000000  00000+0  00000+0 0  9991
2 52255   0.0423 220.2764 0002697   8.3665 131.3340  1.00270304 16543
NILESAT 301             
1 52817U 22061A   26280.66757191 -.00000074  00000+0  00000+0 0  9994
2 52817   0.0557  19.1130 0001557 198.8795  31.6021  1.00271953 15863
CMS-02 (GSAT-24)        
1 52903U 22067A   26280.73776672 -.00000181  00000+0  00000+0 0  9998
2 52903   0.0519  81.9470 0003147 180.1628 102.8882  1.00272363 15735
MEASAT 3D               
1 52904U 22067B   26280.04559507 -.00000259  00000+0  00000+0 0  9995
2 52904   0.0466   3.6991 0002356 247.5666 232.3898  1.00271994 15776
SES-22                  
1 52933U 22071A   26280.64139848  .00000088  00000+0  00000+0 0  9999
2 52933   0.0381  60.8132 0000936 131.3458 276.0326  1.00271904  8658
WFOV (USA 332)          
1 52940U 22073A   26280.51039281 -.00000375  00000+0  00000+0 0  9995
2 52940   3.9935  77.0226 0002328 163.3755  78.7788  1.00276013 15494
TIANLIAN 2-03           
1 53100U 22078A   26280.67103859  .00000057  00000+0  00000+0 0  9995
2 53100   0.9525  77.7990 0002129 162.2931  28.3879  1.00272527 15671
SBIRS GEO-6 (USA 336)   
1 53355U 22092A   26280.52887676 -.00000312  00000+0  00000+0 0  9998
2 53355   3.0813 319.5586 0001860 240.2486 145.7724  1.00270951 15366
EUTELSAT KONNECT VHTS   
1 53765U 22110A   26280.24180917  .00000000  00000+0  00000+0 0  9990
2 53765   0.0584 100.0203 0002283  76.8166 288.8019  1.00269176  7960
ZHONGXING-1E            
1 53813U 22112A   26281.11268304 -.00000164  00000+0  00000+0 0  9992
2 53813   0.0328  28.5309 0003922 240.6607 229.5338  1.00270027 14986
SES-20                  
1 53960U 22123A   26279.86454111 -.00000118  00000+0  00000+0 0  9998
2 53960   0.0456  68.9034 0001374  42.6996 112.0743  1.00270327 14657
SES-21                  
1 53961U 22123B   26280.64295848  .00000053  00000+0  00000+0 0  9994
2 53961   0.0336  65.3927 0001083 126.1249 285.2665  1.00271723  8349
GALAXY 33 (G-33)        
1 54026U 22128A   26280.64261182  .00000000  00000+0  00000+0 0  9998
2 54026   0.0159 198.3678 0001826   0.3992 275.8701  1.00271709 14873
GALAXY 34 (G-34)        
1 54027U 22128B   26280.64339183  .00000042  00000+0  00000+0 0  9992
2 54027   0.0200 241.6441 0001495 313.3042 283.9953  1.00273481 15044
ANGOSAT 2               
1 54033U 22131A   26281.10106966  .00000000  00000+0  00000+0 0  9990
2 54033   0.0215 185.6234 0000539 165.2909  85.2075  1.00270055 14601
EUTELSAT HOTBIRD 13F    
1 54048U 22134A   26280.24388918  .00000070  00000+0  00000+0 0  9999
2 54048   0.0643 285.4014 0001929  74.9786 116.3383  1.00272245 14500
LDPE-2                  
1 54219U 22144A   26280.23322913 -.00000229  00000+0  00000+0 0  9999
2 54219   5.8678  62.5953 0000777 239.6713 116.9879  0.98890104 12956
EUTELSAT HOTBIRD 13G    
1 54225U 22146A   26280.27961470  .00000070  00000+0  00000+0 0  9992
2 54225   0.0505 240.2278 0002056 299.7261 309.6578  1.00271654  8590
ZHONGXING-19            
1 54230U 22148A   26280.62995844 -.00000098  00000+0  00000+0 0  9992
2 54230   0.0175 240.7282 0004998 315.0046 210.5099  1.00271666 14508
GALAXY 31 (G-31)        
1 54243U 22153A   26280.64495183 -.00000003  00000+0  00000+0 0  9991
2 54243   0.0172 182.1852 0001300  19.1214 286.1739  1.00271502  8269
GALAXY 32 (G-32)        
1 54244U 22153B   26280.34244317  .00000000  00000+0  00000+0 0  9996
2 54244   0.0162 208.6117 0000520  83.9365 115.7244  1.00269868 14263
EUTELSAT 10B            
1 54259U 22157A   26280.67095192  .00000053  00000+0  00000+0 0  9995
2 54259   0.0603  96.1882 0001585  49.6357 122.0693  1.00271677 14158
GALAXY 35 (G-35)        
1 54741U 22170A   26280.50793134 -.00000179  00000+0  00000+0 0  9999
2 54741   0.0038 187.7878 0001989  14.4783 263.6543  1.00270980 14027
GALAXY 36 (G-36)        
1 54742U 22170B   26280.50879802 -.00000201  00000+0  00000+0 0  9993
2 54742   0.0197 213.9347 0001420 291.1038 325.2977  1.00270787 13912
METEOSAT-12 (MTG-I1)    
1 54743U 22170C   26280.66887191 -.00000022  00000+0  00000+0 0  9992
2 54743   0.7584  22.9186 0003111  93.7870 140.0916  1.00275392 14103
SHIJIAN-23 (SJ-23)      
1 55131U 23002A   26280.60933169  .00000079  00000+0  00000+0 0  9991
2 55131   4.0010  76.8297 0003474 225.3657 352.2970  1.00026779 13632
APSTAR-6E               
1 55239U 23005A   26280.98054755 -.00000333  00000+0  00000+0 0  9993
2 55239   0.0243 233.6663 0004415 341.5628 288.4127  1.00271842 19835
USA 342                 
1 55263U 23008A   26278.25024471  .00000122  00000+0  00000+0 0  9997
2 55263   0.0107 237.3432 0000125 230.5722  19.9497  1.00272227 13628
ELEKTRO-L 4             
1 55506U 23016A   26280.49464917 -.00000074  00000+0  00000+0 0  9995
2 55506   0.1041  68.1873 0002122 134.9378 156.8790  1.00274975 13458
AMAZONAS NEXUS          
1 55508U 23017A   26276.46438921 -.00000294  00000+0  00000+0 0  9990
2 55508   0.0560  28.4506 0001952 132.1162 317.8050  1.00269245  8139
ZHONGXING-26            
1 55686U 23023A   26280.71711233 -.00000369  00000+0  00000+0 0  9990
2 55686   0.0626  62.5148 0001656  70.0326 267.0592  1.00272386 13350
LUCH-5X (OLYMP-K 2)     
1 55841U 23031A   26280.60993837  .00000017  00000+0  00000+0 0  9991
2 55841   0.0210 112.2306 0001204  40.0135 145.5867  1.00272534 13063
GAOFEN-13 02            
1 55912U 23036A   26280.91208064 -.00000233  00000+0  00000+0 0  9991
2 55912   1.0255  15.0505 0003919 297.0007 181.1078  1.00270993 13225
SES-18                  
1 55970U 23038A   26280.50593801 -.00000118  00000+0  00000+0 0  9990
2 55970   0.0368 269.8937 0002493 326.9236 218.3934  1.00271797 13220
SES-19                  
1 55971U 23038B   26280.64226515  .00000071  00000+0  00000+0 0  9998
2 55971   0.0163 262.1033 0001541 305.7469 264.7795  1.00273178 13228
INTELSAT 40E (IS-40E)   
1 56174U 23052A   26280.50836469 -.00000191  00000+0  00000+0 0  9994
2 56174   0.0102 181.4954 0002602  20.6273 266.0658  1.00271183 12953
VIASAT-3 F1             
1 56370U 23060A   26280.50879802 -.00000202  00000+0  00000+0 0  9992
2 56370   0.0231 240.3596 0000192 314.6040 275.4415  1.00273071 12561
ARCTURUS                
1 56371U 23060B   26280.62137840 -.00000375  00000+0  00000+0 0  9996
2 56371   3.0569  78.4693 0001040 204.5591  76.7189  1.00272551 12582
GS-1                    
1 56372U 23060C   26280.73765863 -.00000186  00000+0  00000+0 0  9991
2 56372   3.0087  78.3926 0003081 263.0161  24.9684  1.00246092  8666
BEIDOU-3 G4             
1 56564U 23066A   26280.64003029 -.00000297  00000+0  00000+0 0  9992
2 56564   0.4471   4.7574 0005732 208.9192 173.1051  1.00271642 12520
ARABSAT-7B (BADR-8)     
1 56757U 23075A   26280.24640252  .00000128  00000+0  00000+0 0  9999
2 56757   0.0763  25.3182 0001677 322.7225 142.5869  1.00272169 12245
NVS-01 (IRNSS-1J)       
1 56759U 23076A   26279.83928153 -.00000357  00000+0  00000+0 0  9999
2 56759   1.9099 239.0805 0006650   6.5710 201.3976  1.00264662 12238
NUSANTARA TIGA (SATRIA) 
1 57045U 23086A   26280.31433602  .00000000  00000+0  00000+0 0  9998
2 57045   0.0178   6.3213 0003317 281.1042 347.6956  1.00265471 10889
H2SAT (HEINRICH HERTZ)  
1 57213U 23093A   26278.95738292 -.00000015  00000+0  00000+0 0  9990
2 57213   0.0463  48.7199 0000341  17.7573 293.5392  1.00272388 12039
SYRACUSE 4B             
1 57214U 23093B   26279.97446356 -.00000070  00000+0  00000+0 0  9992
2 57214   0.0166 233.1748 0000060 164.2287 322.6098  1.00273188  8084
JUPITER 3 (ECHOSTAR 24) 
1 57479U 23108A   26279.22313379  .00000000  00000+0  00000+0 0  9990
2 57479   0.0184 177.2658 0000981  16.7115 166.0199  1.00270485 11766
GALAXY 37 (G-37)        
1 57493U 23112A   26280.64382516  .00000032  00000+0  00000+0 0  9993
2 57493   0.0138 235.8037 0002166 333.5930 271.6890  1.00272582 11676
LUDI TANCE-4 01A        
1 57624U 23120A   26279.77179766 -.00000214  00000+0  00000+0 0  9994
2 57624  15.0327 191.2194 0004781  51.3138 140.4214  1.00271202 11667
TJS-10                  
1 58204U 23169A   26280.74128866 -.00000263  00000+0  00000+0 0  9990
2 58204   2.8285  79.0269 0004380 140.5933 156.1017  1.00271867 10665
ZHONGXING-6E            
1 58253U 23172A   26280.64273034 -.00000377  00000+0  00000+0 0  9991
2 58253   0.0094 160.2564 0002394  29.3872 173.5699  1.00272136 10789
YAOGAN-41               
1 58582U 23197A   26280.62207174 -.00000383  00000+0  00000+0 0  9990
2 58582   2.9354 315.1549 0012531 214.7218 193.5202  1.00273320 10458
OVZON-3                 
1 58698U 24003A   26279.97593249  .00000034  00000+0  00000+0 0  9994
2 58698   0.0115 193.1188 0000044 133.7665  99.8127  1.00271664  8567
INSAT-3DS               
1 58990U 24033A   26280.73835074 -.00000172  00000+0  00000+0 0  9997
2 58990   0.0384  93.8818 0001349 106.0145 164.3707  1.00273077 48196
MERAH PUTIH 2           
1 58995U 24035A   26280.64022337 -.00000374  00000+0  00000+0 0  9998
2 58995   0.0185 246.4029 0001029 354.4967 118.8370  1.00270810  9713
TJS-11                  
1 59020U 24037A   26281.10391788 -.00000383  00000+0  00000+0 0  9991
2 59020   4.0609 328.5939 0003707 294.3365 263.6742  1.00266097  9713
HULIANWAN GAOGUI-01 (H*)
1 59069U 24040A   26280.57116506  .00000139  00000+0  00000+0 0  9999
2 59069   0.0978 343.6623 0001921  19.8403 251.9392  1.00272915  8455
EUTELSAT 36D            
1 59346U 24059A   26280.17706892  .00000139  00000+0  00000+0 0  9996
2 59346   0.0185 194.6061 0000279 127.5772 153.2753  1.00271452  9275
PAKSAT-MM1              
1 59915U 24104A   26280.24882920  .00000137  00000+0  00000+0 0  9992
2 59915   0.0179 194.3499 0001560  10.3606 298.9588  1.00275011  8650
ASTRA 1P (SES-24)       
1 60086U 24115A   26280.24510251  .00000103  00000+0  00000+0 0  9993
2 60086   0.0624   6.3724 0003129 227.1028 249.8738  1.00270437  8321
GOES 19                 
1 60133U 24119A   26280.41786317 -.00000265  00000+0  00000+0 0  9997
2 60133   0.0419  40.3378 0000711 231.9383 179.0514  1.00271589  8088
ZHONGXING-3A            
1 60179U 24122A   26279.78106503  .00000000  00000+0  00000+0 0  9998
2 60179   0.0223  89.1354 0002617 134.5438 174.5110  1.00269094  8420
TURKSAT 6A              
1 60233U 24127A   26280.24960920  .00000129  00000+0  00000+0 0  9990
2 60233   0.0241 200.4143 0004841   5.9056 301.4459  1.00270474  8143
HULIANWAN GAOGUI-02 (H*)
1 60327U 24135A   26280.62796509 -.00000189  00000+0  00000+0 0  9992
2 60327   0.0716 353.6853 0004524 348.1061  53.6719  1.00271569  8612
ZHONGXING-4A            
1 60606U 24151A   26280.70281032 -.00000380  00000+0  00000+0 0  9992
2 60606   1.0302 269.8650 0001510  22.6777  95.0488  1.00269024  7881
HULIANWAN GAOGUI-03 (H*)
1 61503U 24181A   26281.14495760 -.00000256  00000+0  00000+0 0  9998
2 61503   0.0792 358.8380 0000498  77.9894 275.0255  1.00271096  7958
DSN-3 (KIRAMEKI-3)      
1 61733U 24198A   26279.69957427  .00000000  00000+0  00000+0 0  9997
2 61733   0.0226 184.7907 0001012   9.8290 216.6301  1.00266708  7039
KOREASAT 6A             
1 61910U 24206A   26280.64273032 -.00000378  00000+0  00000+0 0  9993
2 61910   0.0170 147.5472 0000840  55.0761 161.0748  1.00269974  6969
OPTUS-X (ADS-01)        
1 62006U 24212A   26280.62865843 -.00000160  00000+0  00000+0 0  9991
2 62006   0.0218 234.6737 0002695 323.2854 201.0456  1.00270681  6883
GSAT-N2 (GSAT-20)       
1 62028U 24214A   26280.61115170 -.00000035  00000+0  00000+0 0  9998
2 62028   0.0646  84.7740 0001327 236.0994 343.3598  1.00270495  7024
SXM-9                   
1 62259U 24234A   26280.50949135 -.00000222  00000+0  00000+0 0  9998
2 62259   0.0217 300.8866 0004365  10.4945 163.0524  1.00270460  6702
TJS-12                  
1 62374U 24246A   26280.62666509 -.00000248  00000+0  00000+0 0  9991
2 62374   0.4562 316.7493 0000738 179.8404 251.8180  1.00270414  6690
NUVIEW ALPHA            
1 62455U 24252B   26280.50992469 -.00000232  00000+0  00000+0 0  9995
2 62455   0.0571  33.2356 0000295 260.9840 182.4364  1.00269761  4952
AGILA                   
1 62456U 24252C   26280.32108517 -.00000154  00000+0  00000+0 0  9992
2 62456   0.0477 110.2490 0001031  96.6359  81.7015  1.00271282  6284
NUVIEW BRAVO            
1 62457U 24252D   26280.50992469 -.00000231  00000+0  00000+0 0  9996
2 62457   0.0665 154.0851 0001514  37.5490 285.0193  1.00270981  4927
THURAYA-4               
1 62483U 25001A   26280.46390453  .00000123  00000+0  00000+0 0  9997
2 62483   0.0311  86.9456 0000069 213.2491 287.2238  1.00274767  5309
SHIJIAN-25 (SJ-25)      
1 62485U 25002A   26280.19518234 -.00000361  00000+0  00000+0 0  9994
2 62485   5.3762  60.3958 0046202 180.2101 332.8824  1.00272383  6482
TJS-14                  
1 62804U 25017A   26280.67259859  .00000098  00000+0  00000+0 0  9999
2 62804   0.5507 308.0859 0003883 327.9438   0.8034  1.00271358  6390
SPAINSAT NG I           
1 62852U 25021A   26280.24700919  .00000000  00000+0  00000+0 0  9991
2 62852   0.0175 200.1647 0000154 139.2422 154.3957  1.00269631  5110
QZS-6 (MICHIBIKI-6)     
1 62876U 25023A   26280.69956196 -.00000248  00000+0  00000+0 0  9993
2 62876   0.0092 141.3760 0002102  70.1963 147.1129  1.00268352  6070
ZHONGXING-10R           
1 63075U 25036A   26280.63568912 -.00000368  00000+0  00000+0 0  9991
2 63075   0.0281 227.0691 0004896 317.4632 171.1394  1.00272861  6081
TJS-15                  
1 63157U 25045A   26280.38817262 -.00000234  00000+0  00000+0 0  9991
2 63157   0.4925  84.3061 0001586 203.6802 316.5177  1.00272787  5882
TIANLIAN 2-04           
1 63361U 25062A   26280.73998186 -.00000160  00000+0  00000+0 0  9999
2 63361   4.0921 272.8971 0033987   8.4893  81.4550  1.00272293  5739
TJS-16                  
1 63397U 25064A   26280.76966413 -.00000119  00000+0  00000+0 0  9995
2 63397   1.3826  80.4350 0002386 228.8117 144.9474  1.00271332  5522
TJS-17                  
1 63524U 25073A   26280.77219884 -.00000329  00000+0  00000+0 0  9994
2 63524   1.3491  81.4658 0021797  97.4100 260.3673  0.99555382  5412
TIANLIAN 2-05           
1 63662U 25084A   26280.67285859  .00000100  00000+0  00000+0 0  9999
2 63662   4.1731 278.6402 0000577 281.8265  78.4166  1.00271605  5516
TJS-19                  
1 63924U 25097A   26280.77412708 -.00000296  00000+0  00000+0 0  9997
2 63924   3.1094 319.4966 0006724 275.9149 200.9489  1.00271234  5273
CHINASAT 3B             
1 64062U 25106A   26280.63073844  .00000000  00000+0  00000+0 0  9993
2 64062   0.0220  95.6295 0002762 117.9094 197.0786  1.00270016  5187
SXM-10                  
1 64290U 25122A   26280.18274447 -.00000034  00000+0  00000+0 0  9994
2 64290   0.0167  17.7607 0001868 310.0045 357.7043  1.00271432  4802
COSMOS 2589             
1 64467U 25131A   26280.69762869 -.00000360  00000+0  00000+0 0  9998
2 64467   0.2229  87.4227 0006739  42.6167 265.5458  1.00270534  4680
CHINASAT 9C             
1 64470U 25132A   26280.69836528 -.00000263  00000+0  00000+0 0  9999
2 64470   0.0143 221.2747 0003076 334.2714 164.4258  1.00269825  5273
MTG-S1                  
1 64723U 25143A   26279.24337438 -.00000023  00000+0  00000+0 0  9991
2 64723   0.6120 345.3468 0004185 257.6015 219.4469  1.00275089  4539
DROR 1                  
1 64784U 25148A   26280.66817858 -.00000051  00000+0  00000+0 0  9991
2 64784   0.0195 254.2878 0001276   4.3435 354.2190  1.00270816  4437
SHIYAN-29               
1 65486U 25196A   26280.74799416 -.00000283  00000+0  00000+0 0  9999
2 65486  28.9396  17.1206 0015435 180.7826 183.1524  1.00280203  4010
NUSANTARA LIMA (NUSANT*)
1 65588U 25205A   26280.64022336 -.00000374  00000+0  00000+0 0  9993
2 65588   0.0045 147.5224 0000547 123.8187  88.2881  1.00272498  3847
TJS-20                  
1 66142U 25238A   26281.10895637 -.00000001  00000+0  00000+0 0  9997
2 66142   5.2257 299.1903 0003274 268.9603 270.2873  1.00275535  3465
CMS-03 (GSAT-7R)        
1 66311U 25249B   26281.11120970 -.00000092  00000+0  00000+0 0  9999
2 66311   0.0156 121.7976 0000658 104.6154 264.3915  1.00272296  3488
VIASAT-3 F2             
1 66454U 25261A   26280.63629512  .00000000  00000+0  00000+0 0  9991
2 66454   0.0228 212.8678 0001033  44.5778 268.9229  1.00269252  3924
SHIJIAN-28 (SJ-28)      
1 66549U 25277A   26281.08169595 -.00000384  00000+0  00000+0 0  9999
2 66549   4.2535 270.3988 0001529  70.2952 182.2866  1.00268932  3287
TJS-22                  
1 66990U 25290A   26281.10973637 -.00000024  00000+0  00000+0 0  9998
2 66990   1.2622 288.8918 0004756 330.4448 223.4045  1.00271507  3159
TJS-23                  
1 67226U 25306A   26279.29525388 -.00000009  00000+0  00000+0 0  9995
2 67226   5.3431 296.9779 0004430 274.8827  84.8670  1.00271811  3006
FENGYUN 4C              
1 67246U 25312A   26280.57267043 -.00000339  00000+0  00000+0 0  9994
2 67246   0.0031 117.4543 0000920 184.9494  52.9956  1.00271463  2996
SHIJIAN-29A (SJ-29A)    
1 67302U 25315A   26280.61219171 -.00000081  00000+0  00000+0 0  9998
2 67302   3.6779  92.3863 0006043  79.4182 138.1729  1.00269482  2743
SHIJIAN-29B (SJ-29B)    
1 67403U 25315C   26280.61219171 -.00000082  00000+0  00000+0 0  9991
2 67403   3.6770  92.3823 0007083 101.3333 116.3307  1.00270146  2817
ELEKTRO-L 5             
1 67756U 26028A   26279.74591973 -.00000115  00000+0  00000+0 0  9996
2 67756   0.0591  52.0666 0001585 127.4547 180.4916  1.00271392  2367
JAM-E JAM 1             
1 67757U 26028B   26280.24787586  .00000139  00000+0  00000+0 0  9996
2 67757   0.1665  20.4019 0000603 285.7890 192.9528  1.00277686  2247
ECHOSTAR 25             
1 68126U 26045A   26280.64711851  .00000000  00000+0  00000+0 0  9999
2 68126   0.0236 192.9864 0001439   0.2571 306.0172  1.00270111  2124
TJS-24                  
1 69235U 26116A   26281.11450306 -.00000246  00000+0  00000+0 0  9991
2 69235   0.2945  87.2931 0002010 186.8007 234.2166  1.00270552  1366
