IRNSS-1A                
1 39199U 13034A   26274.47906318  .00000078  00000+0  00000+0 0  9994
2 39199  35.9547  62.3509 0021243 181.2766 354.2097  1.00269027 48430
IRNSS-1B                
1 39635U 14017A   26280.96494749  .00000076  00000+0  00000+0 0  9990
2 39635  29.1863 238.4676 0018822 190.3339 350.3525  1.00268531 45921
IRNSS-1C                
1 40269U 14061A   26283.53628576 -.00000164  00000+0  00000+0 0  9996
2 40269   6.8062  86.7139 0019221   9.3063 199.0980  1.00275243 43844
IRNSS-1E                
1 41241U 16003A   26282.83635745 -.00000294  00000+0  00000+0 0  9997
2 41241  33.4847  58.0965 0022582 180.9980 192.2702  1.00275792 39233
IRNSS-1G                
1 41469U 16027A   26283.54881604 -.00000336  00000+0  00000+0 0  9998
2 41469   5.4769  94.7802 0002194  53.5132 198.0221  1.00273687 38336
IRNSS-1I                
1 43286U 18035A   26278.00813291  .00000086  00000+0  00000+0 0  9991
2 43286  29.0107  72.4877 0021108 178.2530 180.9696  1.00270154 31178
NVS-01 (IRNSS-1J)       
1 56759U 23076A   26283.54501681 -.00000344  00000+0  00000+0 0  9991
2 56759   1.9011 238.8933 0007148   1.2191 104.7390  1.00276599 12271
