INMARSAT 4-F2 (SOUTHPA*)
1 28899U 05044A   26279.27180117 -.00000273  00000+0  00000+0 0  9993
2 28899   5.2403  43.7254 0002742 164.7485  47.8368  1.00272247 76630
GSAT-8 (GAGAN/PRN 127)  
1 37605U 11022A   26279.46818869  .00000069  00000+0  00000+0 0  9996
2 37605   2.4123  80.3254 0007263 163.8392 354.6185  1.00271587 54335
LUCH 5A (SDCM/PRN 140)  
1 37951U 11074B   26279.20524088 -.00000058  00000+0  00000+0 0  9995
2 37951   9.0302  72.1526 0004520 141.4882  42.2356  1.00274568 54164
SES-5 (EGNOS/PRN 136)   
1 38652U 12036A   26279.60077384  .00000000  00000+0  00000+0 0  9995
2 38652   0.0130 332.7490 0002046 225.7403  38.0350  1.00269853 45577
GSAT-10 (GAGAN/PRN 128) 
1 38779U 12051B   26279.47373538 -.00000182  00000+0  00000+0 0  9999
2 38779   0.0162 112.9943 0004199   8.7908 146.9309  1.00270337 51213
LUCH 5B (SDCM/PRN 125)  
1 38977U 12061A   26279.59661383 -.00000148  00000+0  00000+0 0  9993
2 38977  10.7214  48.7485 0006778 175.8274 349.1533  1.00270993 50722
ASTRA 5B (EGNOS/PRN 123)
1 39617U 14011B   26279.24805440  .00000120  00000+0  00000+0 0  9997
2 39617   0.0744 306.6546 0003534 269.7392 271.3402  1.00273552 45784
LUCH 5V (SDCM/PRN 141)  
1 39727U 14023A   26279.48467602 -.00000282  00000+0  00000+0 0  9992
2 39727   5.4061  68.5180 0003099 163.4531  52.4420  1.00271669 45477
GSAT-15 (GAGAN/PRN 139) 
1 41028U 15065A   26279.54704027 -.00000275  00000+0  00000+0 0  9990
2 41028   0.0352  86.1524 0002033 108.4310 111.0727  1.00269717 39912
EUTELSAT 117 WEST B (W*)
1 41589U 16038B   26279.43412853 -.00000030  00000+0  00000+0 0  9993
2 41589   0.0159  47.4105 0000158  79.1545 287.8563  1.00273851 37770
SES-15 (WAAS/PRN 133)   
1 42709U 17026A   26279.57425372  .00000043  00000+0  00000+0 0  9994
2 42709   0.0360 334.2089 0000396 250.5122 228.0955  1.00267623  8553
QZS-2 (QZSS/PRN 194)    
1 42738U 17028A   26278.77049895 -.00000218  00000+0  00000+0 0  9996
2 42738  39.2685 241.5278 0747134 270.7338 279.8644  1.00255123  8731
QZS-3 (QZSS/PRN 199)    
1 42917U 17048A   26279.55371362 -.00000365  00000+0  00000+0 0  9994
2 42917   0.0521 196.4649 0002069  14.8669 130.2778  1.00274150 33377
QZS-4 (QZSS/PRN 195)    
1 42965U 17062A   26279.48690876 -.00000329  00000+0  00000+0 0  9999
2 42965  40.0344 342.0613 0750098 270.1724  78.5393  1.00267730 32910
BEIDOU-3 G1 (PRN 130)   
1 43683U 18085A   26279.56021365 -.00000124  00000+0  00000+0 0  9996
2 43683   2.6703  94.2116 0005011  28.7895 253.9608  1.00270612 29174
EUTELSAT 5 WEST B (EGN*)
1 44624U 19067A   26278.88611279 -.00000059  00000+0  00000+0 0  9993
2 44624   0.0654   8.9258 0003186 189.2570 130.3971  1.00272037 25530
BEIDOU-3 G2 (PRN 144)   
1 45344U 20017A   26279.54435359 -.00000155  00000+0  00000+0 0  9994
2 45344   2.6316  48.7548 0002659 159.8747  82.6195  1.00271829 24376
BEIDOU-3 G3 (PRN 143)   
1 45807U 20040A   26279.65327558 -.00000368  00000+0  00000+0 0  9993
2 45807   2.7168  67.3557 0003195 272.9812  20.6721  1.00266786 23180
GALAXY 30 (WAAS/PRN 135)
1 46114U 20056C   26279.50379373  .00000000  00000+0  00000+0 0  9990
2 46114   0.0209 176.8965 0002405  26.0204 228.6173  1.00270906 22408
QZS-1R (QZSS/PRN 196)   
1 49336U 21096A   26279.33931479 -.00000225  00000+0  00000+0 0  9996
2 49336  37.6939  77.9416 0745665 270.2557 283.8935  1.00279568 18127
QZS-6 (QZSS/PRN 200)    
1 62876U 25023A   26279.63024234 -.00000250  00000+0  00000+0 0  9997
2 62876   0.0095  50.7280 0002103 161.2218 120.7382  1.00268644  6060
